<?xml version="1.0" encoding="UTF-8"?>
<gpx version="1.1" creator="OTRI calibration fixture generator" xmlns="http://www.topografix.com/GPX/1/1">
<trk><name>CAL-100MI (synthetic calibration fixture, not a real course)</name><trkseg>
<trkpt lat="45.900000" lon="6.900000"><ele>800.0</ele></trkpt>
<trkpt lat="45.901798" lon="6.900092"><ele>822.4</ele></trkpt>
<trkpt lat="45.903586" lon="6.900367"><ele>844.7</ele></trkpt>
<trkpt lat="45.905344" lon="6.900912"><ele>867.1</ele></trkpt>
<trkpt lat="45.907032" lon="6.901804"><ele>889.4</ele></trkpt>
<trkpt lat="45.908589" lon="6.903098"><ele>911.8</ele></trkpt>
<trkpt lat="45.909932" lon="6.904819"><ele>934.2</ele></trkpt>
<trkpt lat="45.910961" lon="6.906939"><ele>956.5</ele></trkpt>
<trkpt lat="45.911574" lon="6.909369"><ele>978.9</ele></trkpt>
<trkpt lat="45.911685" lon="6.911949"><ele>1001.2</ele></trkpt>
<trkpt lat="45.911243" lon="6.914455"><ele>1023.6</ele></trkpt>
<trkpt lat="45.910259" lon="6.916619"><ele>1046.0</ele></trkpt>
<trkpt lat="45.908820" lon="6.918170"><ele>1068.3</ele></trkpt>
<trkpt lat="45.907091" lon="6.918885"><ele>1090.7</ele></trkpt>
<trkpt lat="45.905301" lon="6.918640"><ele>1113.0</ele></trkpt>
<trkpt lat="45.903705" lon="6.917448"><ele>1131.3</ele></trkpt>
<trkpt lat="45.902544" lon="6.915473"><ele>1108.9</ele></trkpt>
<trkpt lat="45.901998" lon="6.913011"><ele>1086.5</ele></trkpt>
<trkpt lat="45.902147" lon="6.910435"><ele>1064.2</ele></trkpt>
<trkpt lat="45.902963" lon="6.908132"><ele>1041.8</ele></trkpt>
<trkpt lat="45.904316" lon="6.906429"><ele>1019.5</ele></trkpt>
<trkpt lat="45.906007" lon="6.905546"><ele>997.1</ele></trkpt>
<trkpt lat="45.907805" lon="6.905568"><ele>974.7</ele></trkpt>
<trkpt lat="45.909496" lon="6.906452"><ele>952.4</ele></trkpt>
<trkpt lat="45.910904" lon="6.908059"><ele>930.0</ele></trkpt>
<trkpt lat="45.911920" lon="6.910193"><ele>907.7</ele></trkpt>
<trkpt lat="45.912493" lon="6.912643"><ele>885.3</ele></trkpt>
<trkpt lat="45.912629" lon="6.915221"><ele>862.9</ele></trkpt>
<trkpt lat="45.912369" lon="6.917779"><ele>840.6</ele></trkpt>
<trkpt lat="45.911777" lon="6.920220"><ele>818.2</ele></trkpt>
<trkpt lat="45.910925" lon="6.922497"><ele>804.1</ele></trkpt>
<trkpt lat="45.909883" lon="6.924604"><ele>826.5</ele></trkpt>
<trkpt lat="45.908713" lon="6.926567"><ele>848.9</ele></trkpt>
<trkpt lat="45.907468" lon="6.928434"><ele>871.2</ele></trkpt>
<trkpt lat="45.906199" lon="6.930264"><ele>893.6</ele></trkpt>
<trkpt lat="45.904949" lon="6.932123"><ele>915.9</ele></trkpt>
<trkpt lat="45.903767" lon="6.934072"><ele>938.3</ele></trkpt>
<trkpt lat="45.902707" lon="6.936160"><ele>960.7</ele></trkpt>
<trkpt lat="45.901830" lon="6.938417"><ele>983.0</ele></trkpt>
<trkpt lat="45.901205" lon="6.940840"><ele>1005.4</ele></trkpt>
<trkpt lat="45.900903" lon="6.943388"><ele>1027.7</ele></trkpt>
<trkpt lat="45.900991" lon="6.945970"><ele>1050.1</ele></trkpt>
<trkpt lat="45.901513" lon="6.948443"><ele>1072.5</ele></trkpt>
<trkpt lat="45.902479" lon="6.950623"><ele>1094.8</ele></trkpt>
<trkpt lat="45.903847" lon="6.952302"><ele>1117.2</ele></trkpt>
<trkpt lat="45.905512" lon="6.953278"><ele>1127.1</ele></trkpt>
<trkpt lat="45.907309" lon="6.953403"><ele>1104.8</ele></trkpt>
<trkpt lat="45.909023" lon="6.952622"><ele>1082.4</ele></trkpt>
<trkpt lat="45.910427" lon="6.951005"><ele>1060.0</ele></trkpt>
<trkpt lat="45.911313" lon="6.948756"><ele>1037.7</ele></trkpt>
<trkpt lat="45.911542" lon="6.946192"><ele>1015.3</ele></trkpt>
<trkpt lat="45.911074" lon="6.943696"><ele>993.0</ele></trkpt>
<trkpt lat="45.909976" lon="6.941648"><ele>970.6</ele></trkpt>
<trkpt lat="45.908419" lon="6.940354"><ele>948.2</ele></trkpt>
<trkpt lat="45.906638" lon="6.939996"><ele>925.9</ele></trkpt>
<trkpt lat="45.904890" lon="6.940605"><ele>903.5</ele></trkpt>
<trkpt lat="45.903408" lon="6.942070"><ele>881.2</ele></trkpt>
<trkpt lat="45.902365" lon="6.944176"><ele>858.8</ele></trkpt>
<trkpt lat="45.901859" lon="6.946657"><ele>836.4</ele></trkpt>
<trkpt lat="45.901907" lon="6.949240"><ele>814.1</ele></trkpt>
<trkpt lat="45.902467" lon="6.951697"><ele>808.3</ele></trkpt>
<trkpt lat="45.903453" lon="6.953858"><ele>830.6</ele></trkpt>
<trkpt lat="45.904765" lon="6.955627"><ele>853.0</ele></trkpt>
<trkpt lat="45.906302" lon="6.956970"><ele>875.4</ele></trkpt>
<trkpt lat="45.907979" lon="6.957905"><ele>897.7</ele></trkpt>
<trkpt lat="45.909731" lon="6.958487"><ele>920.1</ele></trkpt>
<trkpt lat="45.911517" lon="6.958789"><ele>942.4</ele></trkpt>
<trkpt lat="45.913314" lon="6.958897"><ele>964.8</ele></trkpt>
<trkpt lat="45.915113" lon="6.958903"><ele>987.2</ele></trkpt>
<trkpt lat="45.916912" lon="6.958898"><ele>1009.5</ele></trkpt>
<trkpt lat="45.918710" lon="6.958975"><ele>1031.9</ele></trkpt>
<trkpt lat="45.920500" lon="6.959225"><ele>1054.2</ele></trkpt>
<trkpt lat="45.922263" lon="6.959735"><ele>1076.6</ele></trkpt>
<trkpt lat="45.923962" lon="6.960583"><ele>1099.0</ele></trkpt>
<trkpt lat="45.925538" lon="6.961830"><ele>1121.3</ele></trkpt>
<trkpt lat="45.926910" lon="6.963502"><ele>1123.0</ele></trkpt>
<trkpt lat="45.927980" lon="6.965580"><ele>1100.6</ele></trkpt>
<trkpt lat="45.928647" lon="6.967982"><ele>1078.3</ele></trkpt>
<trkpt lat="45.928818" lon="6.970556"><ele>1055.9</ele></trkpt>
<trkpt lat="45.928440" lon="6.973085"><ele>1033.5</ele></trkpt>
<trkpt lat="45.927516" lon="6.975303"><ele>1011.2</ele></trkpt>
<trkpt lat="45.926123" lon="6.976938"><ele>988.8</ele></trkpt>
<trkpt lat="45.924417" lon="6.977758"><ele>966.5</ele></trkpt>
<trkpt lat="45.922620" lon="6.977625"><ele>944.1</ele></trkpt>
<trkpt lat="45.920989" lon="6.976536"><ele>921.7</ele></trkpt>
<trkpt lat="45.919768" lon="6.974638"><ele>899.4</ele></trkpt>
<trkpt lat="45.919144" lon="6.972213"><ele>877.0</ele></trkpt>
<trkpt lat="45.919213" lon="6.969629"><ele>854.7</ele></trkpt>
<trkpt lat="45.919957" lon="6.967275"><ele>832.3</ele></trkpt>
<trkpt lat="45.921258" lon="6.965490"><ele>809.9</ele></trkpt>
<trkpt lat="45.922921" lon="6.964505"><ele>812.4</ele></trkpt>
<trkpt lat="45.924719" lon="6.964423"><ele>834.8</ele></trkpt>
<trkpt lat="45.926431" lon="6.965214"><ele>857.1</ele></trkpt>
<trkpt lat="45.927879" lon="6.966748"><ele>879.5</ele></trkpt>
<trkpt lat="45.928944" lon="6.968832"><ele>901.9</ele></trkpt>
<trkpt lat="45.929569" lon="6.971257"><ele>924.2</ele></trkpt>
<trkpt lat="45.929753" lon="6.973829"><ele>946.6</ele></trkpt>
<trkpt lat="45.929536" lon="6.976396"><ele>968.9</ele></trkpt>
<trkpt lat="45.928978" lon="6.978855"><ele>991.3</ele></trkpt>
<trkpt lat="45.928153" lon="6.981152"><ele>1013.7</ele></trkpt>
<trkpt lat="45.927129" lon="6.983279"><ele>1036.0</ele></trkpt>
<trkpt lat="45.925971" lon="6.985257"><ele>1058.4</ele></trkpt>
<trkpt lat="45.924732" lon="6.987132"><ele>1080.7</ele></trkpt>
<trkpt lat="45.923463" lon="6.988964"><ele>1103.1</ele></trkpt>
<trkpt lat="45.922209" lon="6.990817"><ele>1125.5</ele></trkpt>
<trkpt lat="45.921017" lon="6.992753"><ele>1118.8</ele></trkpt>
<trkpt lat="45.919940" lon="6.994824"><ele>1096.5</ele></trkpt>
<trkpt lat="45.919038" lon="6.997062"><ele>1074.1</ele></trkpt>
<trkpt lat="45.918381" lon="6.999468"><ele>1051.8</ele></trkpt>
<trkpt lat="45.918038" lon="7.002006"><ele>1029.4</ele></trkpt>
<trkpt lat="45.918078" lon="7.004591"><ele>1007.0</ele></trkpt>
<trkpt lat="45.918548" lon="7.007086"><ele>984.7</ele></trkpt>
<trkpt lat="45.919464" lon="7.009311"><ele>962.3</ele></trkpt>
<trkpt lat="45.920790" lon="7.011058"><ele>940.0</ele></trkpt>
<trkpt lat="45.922429" lon="7.012124"><ele>917.6</ele></trkpt>
<trkpt lat="45.924221" lon="7.012353"><ele>895.2</ele></trkpt>
<trkpt lat="45.925956" lon="7.011675"><ele>872.9</ele></trkpt>
<trkpt lat="45.927407" lon="7.010146"><ele>850.5</ele></trkpt>
<trkpt lat="45.928361" lon="7.007954"><ele>828.2</ele></trkpt>
<trkpt lat="45.928670" lon="7.005406"><ele>805.8</ele></trkpt>
<trkpt lat="45.928281" lon="7.002882"><ele>816.6</ele></trkpt>
<trkpt lat="45.927248" lon="7.000764"><ele>838.9</ele></trkpt>
<trkpt lat="45.925733" lon="6.999371"><ele>861.3</ele></trkpt>
<trkpt lat="45.923964" lon="6.998901"><ele>883.6</ele></trkpt>
<trkpt lat="45.922200" lon="6.999402"><ele>906.0</ele></trkpt>
<trkpt lat="45.920677" lon="7.000778"><ele>928.4</ele></trkpt>
<trkpt lat="45.919578" lon="7.002825"><ele>950.7</ele></trkpt>
<trkpt lat="45.919007" lon="7.005277"><ele>973.1</ele></trkpt>
<trkpt lat="45.918993" lon="7.007862"><ele>995.4</ele></trkpt>
<trkpt lat="45.919498" lon="7.010344"><ele>1017.8</ele></trkpt>
<trkpt lat="45.920440" lon="7.012546"><ele>1040.2</ele></trkpt>
<trkpt lat="45.921720" lon="7.014363"><ele>1062.5</ele></trkpt>
<trkpt lat="45.923235" lon="7.015756"><ele>1084.9</ele></trkpt>
<trkpt lat="45.924899" lon="7.016736"><ele>1107.2</ele></trkpt>
<trkpt lat="45.926646" lon="7.017355"><ele>1129.6</ele></trkpt>
<trkpt lat="45.928430" lon="7.017685"><ele>1114.7</ele></trkpt>
<trkpt lat="45.930226" lon="7.017811"><ele>1092.3</ele></trkpt>
<trkpt lat="45.932025" lon="7.017824"><ele>1070.0</ele></trkpt>
<trkpt lat="45.933824" lon="7.017816"><ele>1047.6</ele></trkpt>
<trkpt lat="45.935622" lon="7.017879"><ele>1025.3</ele></trkpt>
<trkpt lat="45.937413" lon="7.018104"><ele>1002.9</ele></trkpt>
<trkpt lat="45.939181" lon="7.018580"><ele>980.5</ele></trkpt>
<trkpt lat="45.940890" lon="7.019386"><ele>958.2</ele></trkpt>
<trkpt lat="45.942484" lon="7.020586"><ele>935.8</ele></trkpt>
<trkpt lat="45.943884" lon="7.022209"><ele>913.5</ele></trkpt>
<trkpt lat="45.944995" lon="7.024244"><ele>891.1</ele></trkpt>
<trkpt lat="45.945712" lon="7.026616"><ele>868.7</ele></trkpt>
<trkpt lat="45.945945" lon="7.029181"><ele>846.4</ele></trkpt>
<trkpt lat="45.945631" lon="7.031728"><ele>824.0</ele></trkpt>
<trkpt lat="45.944767" lon="7.033997"><ele>801.7</ele></trkpt>
<trkpt lat="45.943421" lon="7.035713"><ele>820.7</ele></trkpt>
<trkpt lat="45.941741" lon="7.036636"><ele>843.1</ele></trkpt>
<trkpt lat="45.939942" lon="7.036616"><ele>865.4</ele></trkpt>
<trkpt lat="45.938279" lon="7.035632"><ele>887.8</ele></trkpt>
<trkpt lat="45.936999" lon="7.033814"><ele>910.1</ele></trkpt>
<trkpt lat="45.936300" lon="7.031431"><ele>932.5</ele></trkpt>
<trkpt lat="45.936288" lon="7.028845"><ele>954.9</ele></trkpt>
<trkpt lat="45.936959" lon="7.026445"><ele>977.2</ele></trkpt>
<trkpt lat="45.938205" lon="7.024579"><ele>999.6</ele></trkpt>
<trkpt lat="45.939837" lon="7.023494"><ele>1021.9</ele></trkpt>
<trkpt lat="45.941631" lon="7.023307"><ele>1044.3</ele></trkpt>
<trkpt lat="45.943364" lon="7.024003"><ele>1066.7</ele></trkpt>
<trkpt lat="45.944849" lon="7.025461"><ele>1089.0</ele></trkpt>
<trkpt lat="45.945962" lon="7.027493"><ele>1111.4</ele></trkpt>
<trkpt lat="45.946639" lon="7.029890"><ele>1132.9</ele></trkpt>
<trkpt lat="45.946872" lon="7.032455"><ele>1110.6</ele></trkpt>
<trkpt lat="45.946698" lon="7.035030"><ele>1088.2</ele></trkpt>
<trkpt lat="45.946176" lon="7.037505"><ele>1065.8</ele></trkpt>
<trkpt lat="45.945378" lon="7.039823"><ele>1043.5</ele></trkpt>
<trkpt lat="45.944374" lon="7.041969"><ele>1021.1</ele></trkpt>
<trkpt lat="45.943228" lon="7.043963"><ele>998.8</ele></trkpt>
<trkpt lat="45.941996" lon="7.045848"><ele>976.4</ele></trkpt>
<trkpt lat="45.940728" lon="7.047682"><ele>954.0</ele></trkpt>
<trkpt lat="45.939470" lon="7.049530"><ele>931.7</ele></trkpt>
<trkpt lat="45.938268" lon="7.051455"><ele>909.3</ele></trkpt>
<trkpt lat="45.937175" lon="7.053509"><ele>887.0</ele></trkpt>
<trkpt lat="45.936250" lon="7.055727"><ele>864.6</ele></trkpt>
<trkpt lat="45.935560" lon="7.058115"><ele>842.2</ele></trkpt>
<trkpt lat="45.935178" lon="7.060642"><ele>819.9</ele></trkpt>
<trkpt lat="45.935171" lon="7.063229"><ele>802.5</ele></trkpt>
<trkpt lat="45.935590" lon="7.065743"><ele>824.8</ele></trkpt>
<trkpt lat="45.936456" lon="7.068011"><ele>847.2</ele></trkpt>
<trkpt lat="45.937738" lon="7.069824"><ele>869.6</ele></trkpt>
<trkpt lat="45.939348" lon="7.070978"><ele>891.9</ele></trkpt>
<trkpt lat="45.941132" lon="7.071308"><ele>914.3</ele></trkpt>
<trkpt lat="45.942886" lon="7.070734"><ele>936.6</ele></trkpt>
<trkpt lat="45.944380" lon="7.069295"><ele>959.0</ele></trkpt>
<trkpt lat="45.945401" lon="7.067166"><ele>981.4</ele></trkpt>
<trkpt lat="45.945789" lon="7.064640"><ele>1003.7</ele></trkpt>
<trkpt lat="45.945479" lon="7.062092"><ele>1026.1</ele></trkpt>
<trkpt lat="45.944514" lon="7.059909"><ele>1048.4</ele></trkpt>
<trkpt lat="45.943044" lon="7.058419"><ele>1070.8</ele></trkpt>
<trkpt lat="45.941291" lon="7.057837"><ele>1093.2</ele></trkpt>
<trkpt lat="45.939513" lon="7.058229"><ele>1115.5</ele></trkpt>
<trkpt lat="45.937952" lon="7.059514"><ele>1128.8</ele></trkpt>
<trkpt lat="45.936797" lon="7.061496"><ele>1106.4</ele></trkpt>
<trkpt lat="45.936163" lon="7.063917"><ele>1084.1</ele></trkpt>
<trkpt lat="45.936086" lon="7.066501"><ele>1061.7</ele></trkpt>
<trkpt lat="45.936534" lon="7.069005"><ele>1039.3</ele></trkpt>
<trkpt lat="45.937431" lon="7.071247"><ele>1017.0</ele></trkpt>
<trkpt lat="45.938677" lon="7.073112"><ele>994.6</ele></trkpt>
<trkpt lat="45.940170" lon="7.074554"><ele>972.3</ele></trkpt>
<trkpt lat="45.941821" lon="7.075580"><ele>949.9</ele></trkpt>
<trkpt lat="45.943561" lon="7.076238"><ele>927.5</ele></trkpt>
<trkpt lat="45.945342" lon="7.076597"><ele>905.2</ele></trkpt>
<trkpt lat="45.947138" lon="7.076742"><ele>882.8</ele></trkpt>
<trkpt lat="45.948937" lon="7.076763"><ele>860.5</ele></trkpt>
<trkpt lat="45.950735" lon="7.076753"><ele>838.1</ele></trkpt>
<trkpt lat="45.952534" lon="7.076803"><ele>815.7</ele></trkpt>
<trkpt lat="45.954327" lon="7.077005"><ele>806.6</ele></trkpt>
<trkpt lat="45.956099" lon="7.077448"><ele>829.0</ele></trkpt>
<trkpt lat="45.957817" lon="7.078213"><ele>851.3</ele></trkpt>
<trkpt lat="45.959428" lon="7.079365"><ele>873.7</ele></trkpt>
<trkpt lat="45.960855" lon="7.080940"><ele>896.1</ele></trkpt>
<trkpt lat="45.962004" lon="7.082931"><ele>918.4</ele></trkpt>
<trkpt lat="45.962772" lon="7.085270"><ele>940.8</ele></trkpt>
<trkpt lat="45.963064" lon="7.087824"><ele>963.1</ele></trkpt>
<trkpt lat="45.962814" lon="7.090386"><ele>985.5</ele></trkpt>
<trkpt lat="45.962012" lon="7.092702"><ele>1007.9</ele></trkpt>
<trkpt lat="45.960715" lon="7.094495"><ele>1030.2</ele></trkpt>
<trkpt lat="45.959063" lon="7.095519"><ele>1052.6</ele></trkpt>
<trkpt lat="45.957266" lon="7.095612"><ele>1074.9</ele></trkpt>
<trkpt lat="45.955574" lon="7.094734"><ele>1097.3</ele></trkpt>
<trkpt lat="45.954239" lon="7.093001"><ele>1119.7</ele></trkpt>
<trkpt lat="45.953466" lon="7.090665"><ele>1124.6</ele></trkpt>
<trkpt lat="45.953372" lon="7.088081"><ele>1102.3</ele></trkpt>
<trkpt lat="45.953968" lon="7.085640"><ele>1079.9</ele></trkpt>
<trkpt lat="45.955156" lon="7.083697"><ele>1057.6</ele></trkpt>
<trkpt lat="45.956756" lon="7.082514"><ele>1035.2</ele></trkpt>
<trkpt lat="45.958543" lon="7.082222"><ele>1012.8</ele></trkpt>
<trkpt lat="45.960293" lon="7.082821"><ele>990.5</ele></trkpt>
<trkpt lat="45.961814" lon="7.084200"><ele>968.1</ele></trkpt>
<trkpt lat="45.962974" lon="7.086178"><ele>945.8</ele></trkpt>
<trkpt lat="45.963702" lon="7.088544"><ele>923.4</ele></trkpt>
<trkpt lat="45.963986" lon="7.091099"><ele>901.0</ele></trkpt>
<trkpt lat="45.963856" lon="7.093680"><ele>878.7</ele></trkpt>
<trkpt lat="45.963370" lon="7.096172"><ele>856.3</ele></trkpt>
<trkpt lat="45.962600" lon="7.098510"><ele>834.0</ele></trkpt>
<trkpt lat="45.961616" lon="7.100676"><ele>811.6</ele></trkpt>
<trkpt lat="45.960484" lon="7.102686"><ele>810.8</ele></trkpt>
<trkpt lat="45.959259" lon="7.104581"><ele>833.1</ele></trkpt>
<trkpt lat="45.957993" lon="7.106419"><ele>855.5</ele></trkpt>
<trkpt lat="45.956731" lon="7.108262"><ele>877.8</ele></trkpt>
<trkpt lat="45.955520" lon="7.110176"><ele>900.2</ele></trkpt>
<trkpt lat="45.954412" lon="7.112213"><ele>922.6</ele></trkpt>
<trkpt lat="45.953464" lon="7.114412"><ele>944.9</ele></trkpt>
<trkpt lat="45.952744" lon="7.116783"><ele>967.3</ele></trkpt>
<trkpt lat="45.952323" lon="7.119298"><ele>989.6</ele></trkpt>
<trkpt lat="45.952269" lon="7.121883"><ele>1012.0</ele></trkpt>
<trkpt lat="45.952638" lon="7.124416"><ele>1034.4</ele></trkpt>
<trkpt lat="45.953452" lon="7.126722"><ele>1056.7</ele></trkpt>
<trkpt lat="45.954690" lon="7.128599"><ele>1079.1</ele></trkpt>
<trkpt lat="45.956269" lon="7.129839"><ele>1101.4</ele></trkpt>
<trkpt lat="45.958043" lon="7.130270"><ele>1123.8</ele></trkpt>
<trkpt lat="45.959811" lon="7.129800"><ele>1120.5</ele></trkpt>
<trkpt lat="45.961347" lon="7.128454"><ele>1098.1</ele></trkpt>
<trkpt lat="45.962432" lon="7.126390"><ele>1075.8</ele></trkpt>
<trkpt lat="45.962898" lon="7.123891"><ele>1053.4</ele></trkpt>
<trkpt lat="45.962668" lon="7.121325"><ele>1031.1</ele></trkpt>
<trkpt lat="45.961773" lon="7.119081"><ele>1008.7</ele></trkpt>
<trkpt lat="45.960351" lon="7.117497"><ele>986.3</ele></trkpt>
<trkpt lat="45.958618" lon="7.116805"><ele>964.0</ele></trkpt>
<trkpt lat="45.956830" lon="7.117086"><ele>941.6</ele></trkpt>
<trkpt lat="45.955233" lon="7.118276"><ele>919.3</ele></trkpt>
<trkpt lat="45.954024" lon="7.120192"><ele>896.9</ele></trkpt>
<trkpt lat="45.953327" lon="7.122577"><ele>874.5</ele></trkpt>
<trkpt lat="45.953186" lon="7.125156"><ele>852.2</ele></trkpt>
<trkpt lat="45.953577" lon="7.127681"><ele>829.8</ele></trkpt>
<trkpt lat="45.954427" lon="7.129961"><ele>807.5</ele></trkpt>
<trkpt lat="45.955638" lon="7.131874"><ele>814.9</ele></trkpt>
<trkpt lat="45.957108" lon="7.133365"><ele>837.3</ele></trkpt>
<trkpt lat="45.958745" lon="7.134438"><ele>859.6</ele></trkpt>
<trkpt lat="45.960477" lon="7.135134"><ele>882.0</ele></trkpt>
<trkpt lat="45.962255" lon="7.135524"><ele>904.3</ele></trkpt>
<trkpt lat="45.964050" lon="7.135689"><ele>926.7</ele></trkpt>
<trkpt lat="45.965848" lon="7.135720"><ele>949.1</ele></trkpt>
<trkpt lat="45.967647" lon="7.135709"><ele>971.4</ele></trkpt>
<trkpt lat="45.969445" lon="7.135747"><ele>993.8</ele></trkpt>
<trkpt lat="45.971240" lon="7.135927"><ele>1016.1</ele></trkpt>
<trkpt lat="45.973016" lon="7.136338"><ele>1038.5</ele></trkpt>
<trkpt lat="45.974742" lon="7.137063"><ele>1060.9</ele></trkpt>
<trkpt lat="45.976369" lon="7.138168"><ele>1083.2</ele></trkpt>
<trkpt lat="45.977821" lon="7.139694"><ele>1105.6</ele></trkpt>
<trkpt lat="45.979007" lon="7.141640"><ele>1128.0</ele></trkpt>
<trkpt lat="45.979824" lon="7.143946"><ele>1116.4</ele></trkpt>
<trkpt lat="45.980175" lon="7.146484"><ele>1094.0</ele></trkpt>
<trkpt lat="45.979990" lon="7.149059"><ele>1071.6</ele></trkpt>
<trkpt lat="45.979250" lon="7.151417"><ele>1049.3</ele></trkpt>
<trkpt lat="45.978004" lon="7.153285"><ele>1026.9</ele></trkpt>
<trkpt lat="45.976384" lon="7.154409"><ele>1004.6</ele></trkpt>
<trkpt lat="45.974591" lon="7.154613"><ele>982.2</ele></trkpt>
<trkpt lat="45.972874" lon="7.153844"><ele>959.8</ele></trkpt>
<trkpt lat="45.971486" lon="7.152198"><ele>937.5</ele></trkpt>
<trkpt lat="45.970640" lon="7.149914"><ele>915.1</ele></trkpt>
<trkpt lat="45.970466" lon="7.147338"><ele>892.8</ele></trkpt>
<trkpt lat="45.970986" lon="7.144860"><ele>870.4</ele></trkpt>
<trkpt lat="45.972113" lon="7.142844"><ele>848.0</ele></trkpt>
<trkpt lat="45.973676" lon="7.141564"><ele>825.7</ele></trkpt>
<trkpt lat="45.975454" lon="7.141167"><ele>803.3</ele></trkpt>
<trkpt lat="45.977218" lon="7.141667"><ele>819.0</ele></trkpt>
<trkpt lat="45.978774" lon="7.142966"><ele>841.4</ele></trkpt>
<trkpt lat="45.979981" lon="7.144885"><ele>863.8</ele></trkpt>
<trkpt lat="45.980760" lon="7.147218"><ele>886.1</ele></trkpt>
<trkpt lat="45.981094" lon="7.149762"><ele>908.5</ele></trkpt>
<trkpt lat="45.981009" lon="7.152347"><ele>930.8</ele></trkpt>
<trkpt lat="45.980561" lon="7.154854"><ele>953.2</ele></trkpt>
<trkpt lat="45.979820" lon="7.157212"><ele>975.6</ele></trkpt>
<trkpt lat="45.978857" lon="7.159399"><ele>997.9</ele></trkpt>
<trkpt lat="45.977738" lon="7.161425"><ele>1020.3</ele></trkpt>
<trkpt lat="45.976522" lon="7.163332"><ele>1042.7</ele></trkpt>
<trkpt lat="45.975258" lon="7.165173"><ele>1065.0</ele></trkpt>
<trkpt lat="45.973993" lon="7.167013"><ele>1087.4</ele></trkpt>
<trkpt lat="45.972774" lon="7.168916"><ele>1109.7</ele></trkpt>
<trkpt lat="45.971651" lon="7.170938"><ele>1132.1</ele></trkpt>
<trkpt lat="45.970682" lon="7.173118"><ele>1112.2</ele></trkpt>
<trkpt lat="45.969932" lon="7.175470"><ele>1089.9</ele></trkpt>
<trkpt lat="45.969472" lon="7.177972"><ele>1067.5</ele></trkpt>
<trkpt lat="45.969373" lon="7.180556"><ele>1045.1</ele></trkpt>
<trkpt lat="45.969691" lon="7.183103"><ele>1022.8</ele></trkpt>
<trkpt lat="45.970455" lon="7.185446"><ele>1000.4</ele></trkpt>
<trkpt lat="45.971647" lon="7.187384"><ele>978.1</ele></trkpt>
<trkpt lat="45.973193" lon="7.188707"><ele>955.7</ele></trkpt>
<trkpt lat="45.974953" lon="7.189238"><ele>933.3</ele></trkpt>
<trkpt lat="45.976734" lon="7.188873"><ele>911.0</ele></trkpt>
<trkpt lat="45.978308" lon="7.187622"><ele>888.6</ele></trkpt>
<trkpt lat="45.979455" lon="7.185628"><ele>866.3</ele></trkpt>
<trkpt lat="45.979998" lon="7.183160"><ele>843.9</ele></trkpt>
<trkpt lat="45.979849" lon="7.180581"><ele>821.5</ele></trkpt>
<trkpt lat="45.979025" lon="7.178280"><ele>800.8</ele></trkpt>
<trkpt lat="45.977653" lon="7.176606"><ele>823.2</ele></trkpt>
<trkpt lat="45.975943" lon="7.175803"><ele>845.5</ele></trkpt>
<trkpt lat="45.974149" lon="7.175973"><ele>867.9</ele></trkpt>
<trkpt lat="45.972518" lon="7.177067"><ele>890.3</ele></trkpt>
<trkpt lat="45.971257" lon="7.178912"><ele>912.6</ele></trkpt>
<trkpt lat="45.970497" lon="7.181257"><ele>935.0</ele></trkpt>
<trkpt lat="45.970293" lon="7.183828"><ele>957.3</ele></trkpt>
<trkpt lat="45.970625" lon="7.186372"><ele>979.7</ele></trkpt>
<trkpt lat="45.971428" lon="7.188688"><ele>1002.1</ele></trkpt>
<trkpt lat="45.972602" lon="7.190648"><ele>1024.4</ele></trkpt>
<trkpt lat="45.974047" lon="7.192189"><ele>1046.8</ele></trkpt>
<trkpt lat="45.975669" lon="7.193308"><ele>1069.2</ele></trkpt>
<trkpt lat="45.977393" lon="7.194045"><ele>1091.5</ele></trkpt>
<trkpt lat="45.979168" lon="7.194466"><ele>1113.9</ele></trkpt>
<trkpt lat="45.980962" lon="7.194653"><ele>1130.4</ele></trkpt>
<trkpt lat="45.982760" lon="7.194695"><ele>1108.1</ele></trkpt>
<trkpt lat="45.984559" lon="7.194683"><ele>1085.7</ele></trkpt>
<trkpt lat="45.986357" lon="7.194711"><ele>1063.4</ele></trkpt>
<trkpt lat="45.988153" lon="7.194871"><ele>1041.0</ele></trkpt>
<trkpt lat="45.989932" lon="7.195251"><ele>1018.6</ele></trkpt>
<trkpt lat="45.991666" lon="7.195935"><ele>996.3</ele></trkpt>
<trkpt lat="45.993308" lon="7.196995"><ele>973.9</ele></trkpt>
<trkpt lat="45.994785" lon="7.198472"><ele>951.6</ele></trkpt>
<trkpt lat="45.996006" lon="7.200372"><ele>929.2</ele></trkpt>
<trkpt lat="45.996871" lon="7.202642"><ele>906.8</ele></trkpt>
<trkpt lat="45.997280" lon="7.205163"><ele>884.5</ele></trkpt>
<trkpt lat="45.997159" lon="7.207747"><ele>862.1</ele></trkpt>
<trkpt lat="45.996481" lon="7.210145"><ele>839.8</ele></trkpt>
<trkpt lat="45.995288" lon="7.212083"><ele>817.4</ele></trkpt>
<trkpt lat="45.993702" lon="7.213304"><ele>805.0</ele></trkpt>
<trkpt lat="45.991917" lon="7.213619"><ele>827.3</ele></trkpt>
<trkpt lat="45.990178" lon="7.212960"><ele>849.7</ele></trkpt>
<trkpt lat="45.988740" lon="7.211404"><ele>872.0</ele></trkpt>
<trkpt lat="45.987823" lon="7.209177"><ele>894.4</ele></trkpt>
<trkpt lat="45.987569" lon="7.206615"><ele>916.8</ele></trkpt>
<trkpt lat="45.988011" lon="7.204105"><ele>939.1</ele></trkpt>
<trkpt lat="45.989076" lon="7.202019"><ele>961.5</ele></trkpt>
<trkpt lat="45.990600" lon="7.200644"><ele>983.9</ele></trkpt>
<trkpt lat="45.992364" lon="7.200142"><ele>1006.2</ele></trkpt>
<trkpt lat="45.994141" lon="7.200542"><ele>1028.6</ele></trkpt>
<trkpt lat="45.995730" lon="7.201757"><ele>1050.9</ele></trkpt>
<trkpt lat="45.996981" lon="7.203616"><ele>1073.3</ele></trkpt>
<trkpt lat="45.997812" lon="7.205913"><ele>1095.7</ele></trkpt>
<trkpt lat="45.998196" lon="7.208442"><ele>1118.0</ele></trkpt>
<trkpt lat="45.998157" lon="7.211031"><ele>1126.3</ele></trkpt>
<trkpt lat="45.997747" lon="7.213552"><ele>1103.9</ele></trkpt>
<trkpt lat="45.997036" lon="7.215930"><ele>1081.6</ele></trkpt>
<trkpt lat="45.996096" lon="7.218137"><ele>1059.2</ele></trkpt>
<trkpt lat="45.994992" lon="7.220181"><ele>1036.9</ele></trkpt>
<trkpt lat="45.993784" lon="7.222099"><ele>1014.5</ele></trkpt>
<trkpt lat="45.992523" lon="7.223946"><ele>992.1</ele></trkpt>
<trkpt lat="45.991256" lon="7.225783"><ele>969.8</ele></trkpt>
<trkpt lat="45.990029" lon="7.227677"><ele>947.4</ele></trkpt>
<trkpt lat="45.988892" lon="7.229683"><ele>925.1</ele></trkpt>
<trkpt lat="45.987902" lon="7.231844"><ele>902.7</ele></trkpt>
<trkpt lat="45.987123" lon="7.234177"><ele>880.3</ele></trkpt>
<trkpt lat="45.986627" lon="7.236665"><ele>858.0</ele></trkpt>
<trkpt lat="45.986483" lon="7.239246"><ele>835.6</ele></trkpt>
<trkpt lat="45.986751" lon="7.241805"><ele>813.3</ele></trkpt>
<trkpt lat="45.987463" lon="7.244182"><ele>809.1</ele></trkpt>
<trkpt lat="45.988609" lon="7.246178"><ele>831.5</ele></trkpt>
<trkpt lat="45.990120" lon="7.247583"><ele>853.8</ele></trkpt>
<trkpt lat="45.991864" lon="7.248212"><ele>876.2</ele></trkpt>
<trkpt lat="45.993654" lon="7.247952"><ele>898.6</ele></trkpt>
<trkpt lat="45.995264" lon="7.246798"><ele>920.9</ele></trkpt>
<trkpt lat="45.996470" lon="7.244877"><ele>943.3</ele></trkpt>
<trkpt lat="45.997089" lon="7.242446"><ele>965.6</ele></trkpt>
<trkpt lat="45.997020" lon="7.239859"><ele>988.0</ele></trkpt>
<trkpt lat="45.996270" lon="7.237506"><ele>1010.4</ele></trkpt>
<trkpt lat="45.994952" lon="7.235744"><ele>1032.7</ele></trkpt>
<trkpt lat="45.993268" lon="7.234833"><ele>1055.1</ele></trkpt>
<trkpt lat="45.991470" lon="7.234891"><ele>1077.4</ele></trkpt>
<trkpt lat="45.989809" lon="7.235886"><ele>1099.8</ele></trkpt>
<trkpt lat="45.988497" lon="7.237656"><ele>1122.2</ele></trkpt>
<trkpt lat="45.987675" lon="7.239959"><ele>1122.2</ele></trkpt>
<trkpt lat="45.987407" lon="7.242519"><ele>1099.8</ele></trkpt>
<trkpt lat="45.987680" lon="7.245077"><ele>1077.4</ele></trkpt>
<trkpt lat="45.988433" lon="7.247428"><ele>1055.1</ele></trkpt>
<trkpt lat="45.989570" lon="7.249434"><ele>1032.7</ele></trkpt>
<trkpt lat="45.990989" lon="7.251025"><ele>1010.4</ele></trkpt>
<trkpt lat="45.992595" lon="7.252192"><ele>988.0</ele></trkpt>
<trkpt lat="45.994310" lon="7.252970"><ele>965.6</ele></trkpt>
<trkpt lat="45.996081" lon="7.253424"><ele>943.3</ele></trkpt>
<trkpt lat="45.997874" lon="7.253633"><ele>920.9</ele></trkpt>
<trkpt lat="45.999672" lon="7.253687"><ele>898.6</ele></trkpt>
<trkpt lat="46.001471" lon="7.253677"><ele>876.2</ele></trkpt>
<trkpt lat="46.003269" lon="7.253696"><ele>853.8</ele></trkpt>
<trkpt lat="46.005065" lon="7.253835"><ele>831.5</ele></trkpt>
<trkpt lat="46.006847" lon="7.254186"><ele>809.1</ele></trkpt>
<trkpt lat="46.008589" lon="7.254832"><ele>813.3</ele></trkpt>
<trkpt lat="46.010244" lon="7.255845"><ele>835.6</ele></trkpt>
<trkpt lat="46.011744" lon="7.257274"><ele>858.0</ele></trkpt>
<trkpt lat="46.013001" lon="7.259127"><ele>880.3</ele></trkpt>
<trkpt lat="46.013912" lon="7.261360"><ele>902.7</ele></trkpt>
<trkpt lat="46.014378" lon="7.263862"><ele>925.1</ele></trkpt>
<trkpt lat="46.014320" lon="7.266450"><ele>947.4</ele></trkpt>
<trkpt lat="46.013705" lon="7.268884"><ele>969.8</ele></trkpt>
<trkpt lat="46.012567" lon="7.270890"><ele>992.1</ele></trkpt>
<trkpt lat="46.011018" lon="7.272205"><ele>1014.5</ele></trkpt>
<trkpt lat="46.009244" lon="7.272631"><ele>1036.9</ele></trkpt>
<trkpt lat="46.007486" lon="7.272082"><ele>1059.2</ele></trkpt>
<trkpt lat="46.006001" lon="7.270621"><ele>1081.6</ele></trkpt>
<trkpt lat="46.005016" lon="7.268454"><ele>1103.9</ele></trkpt>
<trkpt lat="46.004681" lon="7.265910"><ele>1126.3</ele></trkpt>
<trkpt lat="46.005045" lon="7.263374"><ele>1118.0</ele></trkpt>
<trkpt lat="46.006045" lon="7.261222"><ele>1095.7</ele></trkpt>
<trkpt lat="46.007527" lon="7.259754"><ele>1073.3</ele></trkpt>
<trkpt lat="46.009275" lon="7.259147"><ele>1050.9</ele></trkpt>
<trkpt lat="46.011062" lon="7.259446"><ele>1028.6</ele></trkpt>
<trkpt lat="46.012681" lon="7.260575"><ele>1006.2</ele></trkpt>
<trkpt lat="46.013977" lon="7.262371"><ele>983.9</ele></trkpt>
<trkpt lat="46.014858" lon="7.264629"><ele>961.5</ele></trkpt>
<trkpt lat="46.015293" lon="7.267142"><ele>939.1</ele></trkpt>
<trkpt lat="46.015300" lon="7.269732"><ele>916.8</ele></trkpt>
<trkpt lat="46.014930" lon="7.272267"><ele>894.4</ele></trkpt>
<trkpt lat="46.014250" lon="7.274664"><ele>872.0</ele></trkpt>
<trkpt lat="46.013332" lon="7.276892"><ele>849.7</ele></trkpt>
<trkpt lat="46.012244" lon="7.278954"><ele>827.3</ele></trkpt>
<trkpt lat="46.011045" lon="7.280884"><ele>805.0</ele></trkpt>
<trkpt lat="46.009788" lon="7.282736"><ele>817.4</ele></trkpt>
<trkpt lat="46.008519" lon="7.284572"><ele>839.8</ele></trkpt>
<trkpt lat="46.007285" lon="7.286457"><ele>862.1</ele></trkpt>
<trkpt lat="46.006135" lon="7.288448"><ele>884.5</ele></trkpt>
<trkpt lat="46.005125" lon="7.290590"><ele>906.8</ele></trkpt>
<trkpt lat="46.004318" lon="7.292905"><ele>929.2</ele></trkpt>
<trkpt lat="46.003786" lon="7.295378"><ele>951.6</ele></trkpt>
<trkpt lat="46.003598" lon="7.297953"><ele>973.9</ele></trkpt>
<trkpt lat="46.003817" lon="7.300524"><ele>996.3</ele></trkpt>
<trkpt lat="46.004477" lon="7.302932"><ele>1018.6</ele></trkpt>
<trkpt lat="46.005575" lon="7.304983"><ele>1041.0</ele></trkpt>
<trkpt lat="46.007050" lon="7.306466"><ele>1063.4</ele></trkpt>
<trkpt lat="46.008776" lon="7.307193"><ele>1085.7</ele></trkpt>
<trkpt lat="46.010571" lon="7.307038"><ele>1108.1</ele></trkpt>
<trkpt lat="46.012214" lon="7.305982"><ele>1130.4</ele></trkpt>
<trkpt lat="46.013477" lon="7.304138"><ele>1113.9</ele></trkpt>
<trkpt lat="46.014170" lon="7.301748"><ele>1091.5</ele></trkpt>
<trkpt lat="46.014183" lon="7.299158"><ele>1069.2</ele></trkpt>
<trkpt lat="46.013507" lon="7.296758"><ele>1046.8</ele></trkpt>
<trkpt lat="46.012245" lon="7.294913"><ele>1024.4</ele></trkpt>
<trkpt lat="46.010591" lon="7.293895"><ele>1002.1</ele></trkpt>
<trkpt lat="46.008793" lon="7.293840"><ele>979.7</ele></trkpt>
<trkpt lat="46.007105" lon="7.294733"><ele>957.3</ele></trkpt>
<trkpt lat="46.005744" lon="7.296426"><ele>935.0</ele></trkpt>
<trkpt lat="46.004861" lon="7.298682"><ele>912.6</ele></trkpt>
<trkpt lat="46.004528" lon="7.301227"><ele>890.3</ele></trkpt>
<trkpt lat="46.004742" lon="7.303798"><ele>867.9</ele></trkpt>
<trkpt lat="46.005444" lon="7.306182"><ele>845.5</ele></trkpt>
<trkpt lat="46.006542" lon="7.308233"><ele>823.2</ele></trkpt>
<trkpt lat="46.007933" lon="7.309874"><ele>800.8</ele></trkpt>
<trkpt lat="46.009522" lon="7.311089"><ele>821.5</ele></trkpt>
<trkpt lat="46.011228" lon="7.311909"><ele>843.9</ele></trkpt>
<trkpt lat="46.012994" lon="7.312396"><ele>866.3</ele></trkpt>
<trkpt lat="46.014786" lon="7.312629"><ele>888.6</ele></trkpt>
<trkpt lat="46.016584" lon="7.312696"><ele>911.0</ele></trkpt>
<trkpt lat="46.018382" lon="7.312689"><ele>933.3</ele></trkpt>
<trkpt lat="46.020181" lon="7.312700"><ele>955.7</ele></trkpt>
<trkpt lat="46.021978" lon="7.312821"><ele>978.1</ele></trkpt>
<trkpt lat="46.023762" lon="7.313142"><ele>1000.4</ele></trkpt>
<trkpt lat="46.025511" lon="7.313751"><ele>1022.8</ele></trkpt>
<trkpt lat="46.027179" lon="7.314719"><ele>1045.1</ele></trkpt>
<trkpt lat="46.028701" lon="7.316099"><ele>1067.5</ele></trkpt>
<trkpt lat="46.029991" lon="7.317905"><ele>1089.9</ele></trkpt>
<trkpt lat="46.030947" lon="7.320100"><ele>1112.2</ele></trkpt>
<trkpt lat="46.031468" lon="7.322579"><ele>1132.1</ele></trkpt>
<trkpt lat="46.031473" lon="7.325170"><ele>1109.7</ele></trkpt>
<trkpt lat="46.030923" lon="7.327636"><ele>1087.4</ele></trkpt>
<trkpt lat="46.029841" lon="7.329706"><ele>1065.0</ele></trkpt>
<trkpt lat="46.028330" lon="7.331112"><ele>1042.7</ele></trkpt>
<trkpt lat="46.026570" lon="7.331647"><ele>1020.3</ele></trkpt>
<trkpt lat="46.024797" lon="7.331211"><ele>997.9</ele></trkpt>
<trkpt lat="46.023269" lon="7.329846"><ele>975.6</ele></trkpt>
<trkpt lat="46.022216" lon="7.327745"><ele>953.2</ele></trkpt>
<trkpt lat="46.021802" lon="7.325225"><ele>930.8</ele></trkpt>
<trkpt lat="46.022087" lon="7.322667"><ele>908.5</ele></trkpt>
<trkpt lat="46.023021" lon="7.320453"><ele>886.1</ele></trkpt>
<trkpt lat="46.024457" lon="7.318893"><ele>863.8</ele></trkpt>
<trkpt lat="46.026187" lon="7.318183"><ele>841.4</ele></trkpt>
<trkpt lat="46.027980" lon="7.318380"><ele>819.0</ele></trkpt>
<trkpt lat="46.029627" lon="7.319421"><ele>803.3</ele></trkpt>
<trkpt lat="46.030966" lon="7.321150"><ele>825.7</ele></trkpt>
<trkpt lat="46.031898" lon="7.323367"><ele>848.0</ele></trkpt>
<trkpt lat="46.032384" lon="7.325861"><ele>870.4</ele></trkpt>
<trkpt lat="46.032438" lon="7.328450"><ele>892.8</ele></trkpt>
<trkpt lat="46.032108" lon="7.330997"><ele>915.1</ele></trkpt>
<trkpt lat="46.031460" lon="7.333414"><ele>937.5</ele></trkpt>
<trkpt lat="46.030566" lon="7.335662"><ele>959.8</ele></trkpt>
<trkpt lat="46.029494" lon="7.337742"><ele>982.2</ele></trkpt>
<trkpt lat="46.028305" lon="7.339686"><ele>1004.6</ele></trkpt>
<trkpt lat="46.027052" lon="7.341545"><ele>1026.9</ele></trkpt>
<trkpt lat="46.025783" lon="7.343380"><ele>1049.3</ele></trkpt>
<trkpt lat="46.024543" lon="7.345256"><ele>1071.6</ele></trkpt>
<trkpt lat="46.023380" lon="7.347233"><ele>1094.0</ele></trkpt>
<trkpt lat="46.022351" lon="7.349357"><ele>1116.4</ele></trkpt>
<trkpt lat="46.021517" lon="7.351652"><ele>1128.0</ele></trkpt>
<trkpt lat="46.020950" lon="7.354110"><ele>1105.6</ele></trkpt>
<trkpt lat="46.020719" lon="7.356679"><ele>1083.2</ele></trkpt>
<trkpt lat="46.020888" lon="7.359258"><ele>1060.9</ele></trkpt>
<trkpt lat="46.021497" lon="7.361695"><ele>1038.5</ele></trkpt>
<trkpt lat="46.022547" lon="7.363799"><ele>1016.1</ele></trkpt>
<trkpt lat="46.023983" lon="7.365358"><ele>993.8</ele></trkpt>
<trkpt lat="46.025689" lon="7.366180"><ele>971.4</ele></trkpt>
<trkpt lat="46.027487" lon="7.366129"><ele>949.1</ele></trkpt>
<trkpt lat="46.029159" lon="7.365174"><ele>926.7</ele></trkpt>
<trkpt lat="46.030476" lon="7.363410"><ele>904.3</ele></trkpt>
<trkpt lat="46.031243" lon="7.361066"><ele>882.0</ele></trkpt>
<trkpt lat="46.031336" lon="7.358479"><ele>859.6</ele></trkpt>
<trkpt lat="46.030736" lon="7.356036"><ele>837.3</ele></trkpt>
<trkpt lat="46.029533" lon="7.354110"><ele>814.9</ele></trkpt>
<trkpt lat="46.027912" lon="7.352987"><ele>807.5</ele></trkpt>
<trkpt lat="46.026117" lon="7.352819"><ele>829.8</ele></trkpt>
<trkpt lat="46.024404" lon="7.353609"><ele>852.2</ele></trkpt>
<trkpt lat="46.022997" lon="7.355221"><ele>874.5</ele></trkpt>
<trkpt lat="46.022054" lon="7.357427"><ele>896.9</ele></trkpt>
<trkpt lat="46.021656" lon="7.359953"><ele>919.3</ele></trkpt>
<trkpt lat="46.021809" lon="7.362534"><ele>941.6</ele></trkpt>
<trkpt lat="46.022459" lon="7.364949"><ele>964.0</ele></trkpt>
<trkpt lat="46.023517" lon="7.367044"><ele>986.3</ele></trkpt>
<trkpt lat="46.024880" lon="7.368735"><ele>1008.7</ele></trkpt>
<trkpt lat="46.026450" lon="7.369998"><ele>1031.1</ele></trkpt>
<trkpt lat="46.028146" lon="7.370862"><ele>1053.4</ele></trkpt>
<trkpt lat="46.029908" lon="7.371383"><ele>1075.8</ele></trkpt>
<trkpt lat="46.031698" lon="7.371641"><ele>1098.1</ele></trkpt>
<trkpt lat="46.033495" lon="7.371723"><ele>1120.5</ele></trkpt>
<trkpt lat="46.035294" lon="7.371720"><ele>1123.8</ele></trkpt>
<trkpt lat="46.037093" lon="7.371724"><ele>1101.4</ele></trkpt>
<trkpt lat="46.038890" lon="7.371827"><ele>1079.1</ele></trkpt>
<trkpt lat="46.040677" lon="7.372122"><ele>1056.7</ele></trkpt>
<trkpt lat="46.042431" lon="7.372693"><ele>1034.4</ele></trkpt>
<trkpt lat="46.044112" lon="7.373617"><ele>1012.0</ele></trkpt>
<trkpt lat="46.045655" lon="7.374949"><ele>989.6</ele></trkpt>
<trkpt lat="46.046976" lon="7.376707"><ele>967.3</ele></trkpt>
<trkpt lat="46.047976" lon="7.378861"><ele>944.9</ele></trkpt>
<trkpt lat="46.048552" lon="7.381316"><ele>922.6</ele></trkpt>
<trkpt lat="46.048619" lon="7.383906"><ele>900.2</ele></trkpt>
<trkpt lat="46.048133" lon="7.386401"><ele>877.8</ele></trkpt>
<trkpt lat="46.047108" lon="7.388531"><ele>855.5</ele></trkpt>
<trkpt lat="46.045639" lon="7.390026"><ele>833.1</ele></trkpt>
<trkpt lat="46.043897" lon="7.390669"><ele>810.8</ele></trkpt>
<trkpt lat="46.042113" lon="7.390345"><ele>811.6</ele></trkpt>
<trkpt lat="46.040543" lon="7.389080"><ele>834.0</ele></trkpt>
<trkpt lat="46.039426" lon="7.387049"><ele>856.3</ele></trkpt>
<trkpt lat="46.038933" lon="7.384557"><ele>878.7</ele></trkpt>
<trkpt lat="46.039138" lon="7.381983"><ele>901.0</ele></trkpt>
<trkpt lat="46.040003" lon="7.379711"><ele>923.4</ele></trkpt>
<trkpt lat="46.041391" lon="7.378063"><ele>945.8</ele></trkpt>
<trkpt lat="46.043099" lon="7.377249"><ele>968.1</ele></trkpt>
<trkpt lat="46.044896" lon="7.377343"><ele>990.5</ele></trkpt>
<trkpt lat="46.046569" lon="7.378293"><ele>1012.8</ele></trkpt>
<trkpt lat="46.047950" lon="7.379954"><ele>1035.2</ele></trkpt>
<trkpt lat="46.048932" lon="7.382126"><ele>1057.6</ele></trkpt>
<trkpt lat="46.049469" lon="7.384599"><ele>1079.9</ele></trkpt>
<trkpt lat="46.049571" lon="7.387186"><ele>1102.3</ele></trkpt>
<trkpt lat="46.049282" lon="7.389744"><ele>1124.6</ele></trkpt>
<trkpt lat="46.048667" lon="7.392179"><ele>1119.7</ele></trkpt>
<trkpt lat="46.047798" lon="7.394448"><ele>1097.3</ele></trkpt>
<trkpt lat="46.046743" lon="7.396547"><ele>1074.9</ele></trkpt>
<trkpt lat="46.045565" lon="7.398505"><ele>1052.6</ele></trkpt>
<trkpt lat="46.044317" lon="7.400371"><ele>1030.2</ele></trkpt>
<trkpt lat="46.043047" lon="7.402206"><ele>1007.9</ele></trkpt>
<trkpt lat="46.041801" lon="7.404075"><ele>985.5</ele></trkpt>
<trkpt lat="46.040627" lon="7.406038"><ele>963.1</ele></trkpt>
<trkpt lat="46.039579" lon="7.408145"><ele>940.8</ele></trkpt>
<trkpt lat="46.038720" lon="7.410421"><ele>918.4</ele></trkpt>
<trkpt lat="46.038118" lon="7.412862"><ele>896.1</ele></trkpt>
<trkpt lat="46.037845" lon="7.415423"><ele>873.7</ele></trkpt>
<trkpt lat="46.037965" lon="7.418008"><ele>851.3</ele></trkpt>
<trkpt lat="46.038523" lon="7.420472"><ele>829.0</ele></trkpt>
<trkpt lat="46.039523" lon="7.422625"><ele>806.6</ele></trkpt>
<trkpt lat="46.040920" lon="7.424258"><ele>815.7</ele></trkpt>
<trkpt lat="46.042603" lon="7.425173"><ele>838.1</ele></trkpt>
<trkpt lat="46.044401" lon="7.425227"><ele>860.5</ele></trkpt>
<trkpt lat="46.046099" lon="7.424373"><ele>882.8</ele></trkpt>
<trkpt lat="46.047468" lon="7.422692"><ele>905.2</ele></trkpt>
<trkpt lat="46.048306" lon="7.420399"><ele>927.5</ele></trkpt>
<trkpt lat="46.048480" lon="7.417820"><ele>949.9</ele></trkpt>
<trkpt lat="46.047957" lon="7.415340"><ele>972.3</ele></trkpt>
<trkpt lat="46.046816" lon="7.413337"><ele>994.6</ele></trkpt>
<trkpt lat="46.045231" lon="7.412111"><ele>1017.0</ele></trkpt>
<trkpt lat="46.043443" lon="7.411830"><ele>1039.3</ele></trkpt>
<trkpt lat="46.041708" lon="7.412514"><ele>1061.7</ele></trkpt>
<trkpt lat="46.040256" lon="7.414043"><ele>1084.1</ele></trkpt>
<trkpt lat="46.039254" lon="7.416195"><ele>1106.4</ele></trkpt>
<trkpt lat="46.038792" lon="7.418699"><ele>1128.8</ele></trkpt>
<trkpt lat="46.038884" lon="7.421287"><ele>1115.5</ele></trkpt>
<trkpt lat="46.039481" lon="7.423731"><ele>1093.2</ele></trkpt>
<trkpt lat="46.040497" lon="7.425869"><ele>1070.8</ele></trkpt>
<trkpt lat="46.041830" lon="7.427608"><ele>1048.4</ele></trkpt>
<trkpt lat="46.043381" lon="7.428921"><ele>1026.1</ele></trkpt>
<trkpt lat="46.045065" lon="7.429828"><ele>1003.7</ele></trkpt>
<trkpt lat="46.046822" lon="7.430386"><ele>981.4</ele></trkpt>
<trkpt lat="46.048610" lon="7.430670"><ele>959.0</ele></trkpt>
<trkpt lat="46.050407" lon="7.430767"><ele>936.6</ele></trkpt>
<trkpt lat="46.052206" lon="7.430769"><ele>914.3</ele></trkpt>
<trkpt lat="46.054004" lon="7.430767"><ele>891.9</ele></trkpt>
<trkpt lat="46.055802" lon="7.430855"><ele>869.6</ele></trkpt>
<trkpt lat="46.057591" lon="7.431122"><ele>847.2</ele></trkpt>
<trkpt lat="46.059351" lon="7.431658"><ele>824.8</ele></trkpt>
<trkpt lat="46.061043" lon="7.432539"><ele>802.5</ele></trkpt>
<trkpt lat="46.062605" lon="7.433822"><ele>819.9</ele></trkpt>
<trkpt lat="46.063957" lon="7.435532"><ele>842.2</ele></trkpt>
<trkpt lat="46.064999" lon="7.437645"><ele>864.6</ele></trkpt>
<trkpt lat="46.065629" lon="7.440073"><ele>887.0</ele></trkpt>
<trkpt lat="46.065758" lon="7.442659"><ele>909.3</ele></trkpt>
<trkpt lat="46.065336" lon="7.445179"><ele>931.7</ele></trkpt>
<trkpt lat="46.064370" lon="7.447366"><ele>954.0</ele></trkpt>
<trkpt lat="46.062945" lon="7.448947"><ele>976.4</ele></trkpt>
<trkpt lat="46.061223" lon="7.449697"><ele>998.8</ele></trkpt>
<trkpt lat="46.059430" lon="7.449485"><ele>1021.1</ele></trkpt>
<trkpt lat="46.057823" lon="7.448321"><ele>1043.5</ele></trkpt>
<trkpt lat="46.056644" lon="7.446365"><ele>1065.8</ele></trkpt>
<trkpt lat="46.056073" lon="7.443906"><ele>1088.2</ele></trkpt>
<trkpt lat="46.056198" lon="7.441321"><ele>1110.6</ele></trkpt>
<trkpt lat="46.056992" lon="7.438995"><ele>1132.9</ele></trkpt>
<trkpt lat="46.058330" lon="7.437262"><ele>1111.4</ele></trkpt>
<trkpt lat="46.060012" lon="7.436345"><ele>1089.0</ele></trkpt>
<trkpt lat="46.061811" lon="7.436335"><ele>1066.7</ele></trkpt>
<trkpt lat="46.063508" lon="7.437194"><ele>1044.3</ele></trkpt>
<trkpt lat="46.064929" lon="7.438783"><ele>1021.9</ele></trkpt>
<trkpt lat="46.065960" lon="7.440907"><ele>999.6</ele></trkpt>
<trkpt lat="46.066549" lon="7.443356"><ele>977.2</ele></trkpt>
<trkpt lat="46.066699" lon="7.445940"><ele>954.9</ele></trkpt>
<trkpt lat="46.066452" lon="7.448508"><ele>932.5</ele></trkpt>
<trkpt lat="46.065871" lon="7.450961"><ele>910.1</ele></trkpt>
<trkpt lat="46.065027" lon="7.453250"><ele>887.8</ele></trkpt>
<trkpt lat="46.063991" lon="7.455369"><ele>865.4</ele></trkpt>
<trkpt lat="46.062824" lon="7.457341"><ele>843.1</ele></trkpt>
<trkpt lat="46.061581" lon="7.459216"><ele>820.7</ele></trkpt>
<trkpt lat="46.060311" lon="7.461052"><ele>801.7</ele></trkpt>
<trkpt lat="46.059060" lon="7.462914"><ele>824.0</ele></trkpt>
<trkpt lat="46.057876" lon="7.464864"><ele>846.4</ele></trkpt>
<trkpt lat="46.056810" lon="7.466952"><ele>868.7</ele></trkpt>
<trkpt lat="46.055926" lon="7.469209"><ele>891.1</ele></trkpt>
<trkpt lat="46.055290" lon="7.471634"><ele>913.5</ele></trkpt>
<trkpt lat="46.054976" lon="7.474186"><ele>935.8</ele></trkpt>
<trkpt lat="46.055048" lon="7.476775"><ele>958.2</ele></trkpt>
<trkpt lat="46.055554" lon="7.479263"><ele>980.5</ele></trkpt>
<trkpt lat="46.056505" lon="7.481463"><ele>1002.9</ele></trkpt>
<trkpt lat="46.057861" lon="7.483167"><ele>1025.3</ele></trkpt>
<trkpt lat="46.059518" lon="7.484173"><ele>1047.6</ele></trkpt>
<trkpt lat="46.061313" lon="7.484331"><ele>1070.0</ele></trkpt>
<trkpt lat="46.063035" lon="7.483580"><ele>1092.3</ele></trkpt>
<trkpt lat="46.064453" lon="7.481985"><ele>1114.7</ele></trkpt>
<trkpt lat="46.065360" lon="7.479747"><ele>1129.6</ele></trkpt>
<trkpt lat="46.065614" lon="7.477181"><ele>1107.2</ele></trkpt>
<trkpt lat="46.065170" lon="7.474669"><ele>1084.9</ele></trkpt>
<trkpt lat="46.064092" lon="7.472593"><ele>1062.5</ele></trkpt>
<trkpt lat="46.062547" lon="7.471265"><ele>1040.2</ele></trkpt>
<trkpt lat="46.060770" lon="7.470872"><ele>1017.8</ele></trkpt>
<trkpt lat="46.059016" lon="7.471449"><ele>995.4</ele></trkpt>
<trkpt lat="46.057521" lon="7.472891"><ele>973.1</ele></trkpt>
<trkpt lat="46.056462" lon="7.474985"><ele>950.7</ele></trkpt>
<trkpt lat="46.055935" lon="7.477463"><ele>928.4</ele></trkpt>
<trkpt lat="46.055965" lon="7.480055"><ele>906.0</ele></trkpt>
<trkpt lat="46.056507" lon="7.482526"><ele>883.6</ele></trkpt>
<trkpt lat="46.057480" lon="7.484706"><ele>861.3</ele></trkpt>
<trkpt lat="46.058782" lon="7.486494"><ele>838.9</ele></trkpt>
<trkpt lat="46.060313" lon="7.487856"><ele>816.6</ele></trkpt>
<trkpt lat="46.061986" lon="7.488808"><ele>805.8</ele></trkpt>
<trkpt lat="46.063736" lon="7.489402"><ele>828.2</ele></trkpt>
<trkpt lat="46.065522" lon="7.489714"><ele>850.5</ele></trkpt>
<trkpt lat="46.067319" lon="7.489828"><ele>872.9</ele></trkpt>
<trkpt lat="46.069118" lon="7.489836"><ele>895.2</ele></trkpt>
<trkpt lat="46.070916" lon="7.489830"><ele>917.6</ele></trkpt>
<trkpt lat="46.072714" lon="7.489903"><ele>940.0</ele></trkpt>
<trkpt lat="46.074505" lon="7.490145"><ele>962.3</ele></trkpt>
<trkpt lat="46.076270" lon="7.490646"><ele>984.7</ele></trkpt>
<trkpt lat="46.077972" lon="7.491484"><ele>1007.0</ele></trkpt>
<trkpt lat="46.079553" lon="7.492719"><ele>1029.4</ele></trkpt>
<trkpt lat="46.080934" lon="7.494381"><ele>1051.8</ele></trkpt>
<trkpt lat="46.082017" lon="7.496451"><ele>1074.1</ele></trkpt>
<trkpt lat="46.082699" lon="7.498851"><ele>1096.5</ele></trkpt>
<trkpt lat="46.082889" lon="7.501429"><ele>1118.8</ele></trkpt>
<trkpt lat="46.082531" lon="7.503970"><ele>1125.5</ele></trkpt>
<trkpt lat="46.081625" lon="7.506211"><ele>1103.1</ele></trkpt>
<trkpt lat="46.080246" lon="7.507875"><ele>1080.7</ele></trkpt>
<trkpt lat="46.078548" lon="7.508729"><ele>1058.4</ele></trkpt>
<trkpt lat="46.076751" lon="7.508631"><ele>1036.0</ele></trkpt>
<trkpt lat="46.075109" lon="7.507571"><ele>1013.7</ele></trkpt>
<trkpt lat="46.073870" lon="7.505692"><ele>991.3</ele></trkpt>
<trkpt lat="46.073223" lon="7.503273"><ele>968.9</ele></trkpt>
<trkpt lat="46.073267" lon="7.500681"><ele>946.6</ele></trkpt>
<trkpt lat="46.073989" lon="7.498306"><ele>924.2</ele></trkpt>
<trkpt lat="46.075273" lon="7.496491"><ele>901.9</ele></trkpt>
<trkpt lat="46.076927" lon="7.495473"><ele>879.5</ele></trkpt>
<trkpt lat="46.078724" lon="7.495358"><ele>857.1</ele></trkpt>
<trkpt lat="46.080443" lon="7.496122"><ele>834.8</ele></trkpt>
<trkpt lat="46.081902" lon="7.497637"><ele>812.4</ele></trkpt>
<trkpt lat="46.082982" lon="7.499711"><ele>809.9</ele></trkpt>
<trkpt lat="46.083623" lon="7.502134"><ele>832.3</ele></trkpt>
<trkpt lat="46.083822" lon="7.504711"><ele>854.7</ele></trkpt>
<trkpt lat="46.083617" lon="7.507288"><ele>877.0</ele></trkpt>
<trkpt lat="46.083071" lon="7.509758"><ele>899.4</ele></trkpt>
<trkpt lat="46.082254" lon="7.512068"><ele>921.7</ele></trkpt>
<trkpt lat="46.081236" lon="7.514206"><ele>944.1</ele></trkpt>
<trkpt lat="46.080081" lon="7.516194"><ele>966.5</ele></trkpt>
<trkpt lat="46.078845" lon="7.518077"><ele>988.8</ele></trkpt>
<trkpt lat="46.077576" lon="7.519915"><ele>1011.2</ele></trkpt>
<trkpt lat="46.076320" lon="7.521772"><ele>1033.5</ele></trkpt>
<trkpt lat="46.075125" lon="7.523709"><ele>1055.9</ele></trkpt>
<trkpt lat="46.074043" lon="7.525780"><ele>1078.3</ele></trkpt>
<trkpt lat="46.073135" lon="7.528018"><ele>1100.6</ele></trkpt>
<trkpt lat="46.072467" lon="7.530425"><ele>1123.0</ele></trkpt>
<trkpt lat="46.072112" lon="7.532967"><ele>1121.3</ele></trkpt>
<trkpt lat="46.072137" lon="7.535559"><ele>1099.0</ele></trkpt>
<trkpt lat="46.072592" lon="7.538068"><ele>1076.6</ele></trkpt>
<trkpt lat="46.073493" lon="7.540312"><ele>1054.2</ele></trkpt>
<trkpt lat="46.074805" lon="7.542084"><ele>1031.9</ele></trkpt>
<trkpt lat="46.076435" lon="7.543181"><ele>1009.5</ele></trkpt>
<trkpt lat="46.078225" lon="7.543441"><ele>987.2</ele></trkpt>
<trkpt lat="46.079967" lon="7.542794"><ele>964.8</ele></trkpt>
<trkpt lat="46.081431" lon="7.541288"><ele>942.4</ele></trkpt>
<trkpt lat="46.082406" lon="7.539109"><ele>920.1</ele></trkpt>
<trkpt lat="46.082739" lon="7.536560"><ele>897.7</ele></trkpt>
<trkpt lat="46.082374" lon="7.534021"><ele>875.4</ele></trkpt>
<trkpt lat="46.081362" lon="7.531877"><ele>853.0</ele></trkpt>
<trkpt lat="46.079860" lon="7.530451"><ele>830.6</ele></trkpt>
<trkpt lat="46.078096" lon="7.529945"><ele>808.3</ele></trkpt>
<trkpt lat="46.076327" lon="7.530413"><ele>814.1</ele></trkpt>
<trkpt lat="46.074793" lon="7.531765"><ele>836.4</ele></trkpt>
<trkpt lat="46.073676" lon="7.533798"><ele>858.8</ele></trkpt>
<trkpt lat="46.073086" lon="7.536247"><ele>881.2</ele></trkpt>
<trkpt lat="46.073053" lon="7.538840"><ele>903.5</ele></trkpt>
<trkpt lat="46.073540" lon="7.541335"><ele>925.9</ele></trkpt>
<trkpt lat="46.074469" lon="7.543556"><ele>948.2</ele></trkpt>
<trkpt lat="46.075738" lon="7.545393"><ele>970.6</ele></trkpt>
<trkpt lat="46.077247" lon="7.546804"><ele>993.0</ele></trkpt>
<trkpt lat="46.078907" lon="7.547801"><ele>1015.3</ele></trkpt>
<trkpt lat="46.080651" lon="7.548434"><ele>1037.7</ele></trkpt>
<trkpt lat="46.082434" lon="7.548773"><ele>1060.0</ele></trkpt>
<trkpt lat="46.084231" lon="7.548906"><ele>1082.4</ele></trkpt>
<trkpt lat="46.086029" lon="7.548921"><ele>1104.8</ele></trkpt>
<trkpt lat="46.087828" lon="7.548912"><ele>1127.1</ele></trkpt>
<trkpt lat="46.089626" lon="7.548971"><ele>1117.2</ele></trkpt>
<trkpt lat="46.091418" lon="7.549190"><ele>1094.8</ele></trkpt>
<trkpt lat="46.093188" lon="7.549657"><ele>1072.5</ele></trkpt>
<trkpt lat="46.094900" lon="7.550452"><ele>1050.1</ele></trkpt>
<trkpt lat="46.096499" lon="7.551640"><ele>1027.7</ele></trkpt>
<trkpt lat="46.097907" lon="7.553253"><ele>1005.4</ele></trkpt>
<trkpt lat="46.099029" lon="7.555280"><ele>983.0</ele></trkpt>
<trkpt lat="46.099763" lon="7.557649"><ele>960.7</ele></trkpt>
<trkpt lat="46.100014" lon="7.560217"><ele>938.3</ele></trkpt>
<trkpt lat="46.099720" lon="7.562776"><ele>915.9</ele></trkpt>
<trkpt lat="46.098874" lon="7.565066"><ele>893.6</ele></trkpt>
<trkpt lat="46.097543" lon="7.566810"><ele>871.2</ele></trkpt>
<trkpt lat="46.095872" lon="7.567768"><ele>848.9</ele></trkpt>
<trkpt lat="46.094073" lon="7.567782"><ele>826.5</ele></trkpt>
<trkpt lat="46.092401" lon="7.566828"><ele>804.1</ele></trkpt>
<trkpt lat="46.091104" lon="7.565031"><ele>818.2</ele></trkpt>
<trkpt lat="46.090382" lon="7.562656"><ele>840.6</ele></trkpt>
<trkpt lat="46.090345" lon="7.560063"><ele>862.9</ele></trkpt>
<trkpt lat="46.090993" lon="7.557643"><ele>885.3</ele></trkpt>
<trkpt lat="46.092221" lon="7.555748"><ele>907.7</ele></trkpt>
<trkpt lat="46.093844" lon="7.554630"><ele>930.0</ele></trkpt>
<trkpt lat="46.095636" lon="7.554410"><ele>952.4</ele></trkpt>
<trkpt lat="46.097374" lon="7.555078"><ele>974.7</ele></trkpt>
<trkpt lat="46.098871" lon="7.556516"><ele>997.1</ele></trkpt>
<trkpt lat="46.099998" lon="7.558537"><ele>1019.5</ele></trkpt>
<trkpt lat="46.100690" lon="7.560932"><ele>1041.8</ele></trkpt>
<trkpt lat="46.100939" lon="7.563501"><ele>1064.2</ele></trkpt>
<trkpt lat="46.100778" lon="7.566084"><ele>1086.5</ele></trkpt>
<trkpt lat="46.100268" lon="7.568571"><ele>1108.9</ele></trkpt>
<trkpt lat="46.099478" lon="7.570902"><ele>1131.3</ele></trkpt>
<trkpt lat="46.098480" lon="7.573060"><ele>1113.0</ele></trkpt>
<trkpt lat="46.097338" lon="7.575064"><ele>1090.7</ele></trkpt>
<trkpt lat="46.096109" lon="7.576957"><ele>1068.3</ele></trkpt>
<trkpt lat="46.094841" lon="7.578797"><ele>1046.0</ele></trkpt>
<trkpt lat="46.093581" lon="7.580649"><ele>1023.6</ele></trkpt>
<trkpt lat="46.092377" lon="7.582575"><ele>1001.2</ele></trkpt>
<trkpt lat="46.091279" lon="7.584629"><ele>978.9</ele></trkpt>
<trkpt lat="46.090347" lon="7.586847"><ele>956.5</ele></trkpt>
<trkpt lat="46.089648" lon="7.589237"><ele>934.2</ele></trkpt>
<trkpt lat="46.089253" lon="7.591767"><ele>911.8</ele></trkpt>
<trkpt lat="46.089232" lon="7.594360"><ele>889.4</ele></trkpt>
<trkpt lat="46.089636" lon="7.596888"><ele>867.1</ele></trkpt>
<trkpt lat="46.090486" lon="7.599173"><ele>844.7</ele></trkpt>
<trkpt lat="46.091755" lon="7.601011"><ele>822.4</ele></trkpt>
<trkpt lat="46.093355" lon="7.602195"><ele>800.0</ele></trkpt>
</trkseg></trk>
</gpx>
