<?xml version="1.0" encoding="UTF-8"?>
<gpx version="1.1" creator="OTRI calibration fixture generator" xmlns="http://www.topografix.com/GPX/1/1">
<trk><name>CAL-50MI (synthetic calibration fixture, not a real course)</name><trkseg>
<trkpt lat="45.900000" lon="6.900000"><ele>800.0</ele></trkpt>
<trkpt lat="45.901798" lon="6.900092"><ele>822.4</ele></trkpt>
<trkpt lat="45.903586" lon="6.900367"><ele>844.7</ele></trkpt>
<trkpt lat="45.905344" lon="6.900912"><ele>867.1</ele></trkpt>
<trkpt lat="45.907032" lon="6.901804"><ele>889.4</ele></trkpt>
<trkpt lat="45.908589" lon="6.903098"><ele>911.8</ele></trkpt>
<trkpt lat="45.909932" lon="6.904819"><ele>934.2</ele></trkpt>
<trkpt lat="45.910961" lon="6.906939"><ele>956.5</ele></trkpt>
<trkpt lat="45.911574" lon="6.909369"><ele>978.9</ele></trkpt>
<trkpt lat="45.911685" lon="6.911949"><ele>1001.2</ele></trkpt>
<trkpt lat="45.911243" lon="6.914455"><ele>1023.6</ele></trkpt>
<trkpt lat="45.910259" lon="6.916619"><ele>1046.0</ele></trkpt>
<trkpt lat="45.908820" lon="6.918170"><ele>1068.3</ele></trkpt>
<trkpt lat="45.907091" lon="6.918885"><ele>1090.7</ele></trkpt>
<trkpt lat="45.905301" lon="6.918640"><ele>1113.0</ele></trkpt>
<trkpt lat="45.903705" lon="6.917448"><ele>1135.4</ele></trkpt>
<trkpt lat="45.902544" lon="6.915473"><ele>1134.5</ele></trkpt>
<trkpt lat="45.901998" lon="6.913011"><ele>1112.2</ele></trkpt>
<trkpt lat="45.902147" lon="6.910435"><ele>1089.8</ele></trkpt>
<trkpt lat="45.902963" lon="6.908132"><ele>1067.5</ele></trkpt>
<trkpt lat="45.904316" lon="6.906429"><ele>1045.1</ele></trkpt>
<trkpt lat="45.906007" lon="6.905546"><ele>1022.7</ele></trkpt>
<trkpt lat="45.907805" lon="6.905568"><ele>1000.4</ele></trkpt>
<trkpt lat="45.909496" lon="6.906452"><ele>978.0</ele></trkpt>
<trkpt lat="45.910904" lon="6.908059"><ele>955.7</ele></trkpt>
<trkpt lat="45.911920" lon="6.910193"><ele>933.3</ele></trkpt>
<trkpt lat="45.912493" lon="6.912643"><ele>910.9</ele></trkpt>
<trkpt lat="45.912629" lon="6.915221"><ele>888.6</ele></trkpt>
<trkpt lat="45.912369" lon="6.917779"><ele>866.2</ele></trkpt>
<trkpt lat="45.911777" lon="6.920220"><ele>843.9</ele></trkpt>
<trkpt lat="45.910925" lon="6.922497"><ele>821.5</ele></trkpt>
<trkpt lat="45.909883" lon="6.924604"><ele>800.9</ele></trkpt>
<trkpt lat="45.908713" lon="6.926567"><ele>823.2</ele></trkpt>
<trkpt lat="45.907468" lon="6.928434"><ele>845.6</ele></trkpt>
<trkpt lat="45.906199" lon="6.930264"><ele>867.9</ele></trkpt>
<trkpt lat="45.904949" lon="6.932123"><ele>890.3</ele></trkpt>
<trkpt lat="45.903767" lon="6.934072"><ele>912.7</ele></trkpt>
<trkpt lat="45.902707" lon="6.936160"><ele>935.0</ele></trkpt>
<trkpt lat="45.901830" lon="6.938417"><ele>957.4</ele></trkpt>
<trkpt lat="45.901205" lon="6.940840"><ele>979.7</ele></trkpt>
<trkpt lat="45.900903" lon="6.943388"><ele>1002.1</ele></trkpt>
<trkpt lat="45.900991" lon="6.945970"><ele>1024.5</ele></trkpt>
<trkpt lat="45.901513" lon="6.948443"><ele>1046.8</ele></trkpt>
<trkpt lat="45.902479" lon="6.950623"><ele>1069.2</ele></trkpt>
<trkpt lat="45.903847" lon="6.952302"><ele>1091.5</ele></trkpt>
<trkpt lat="45.905512" lon="6.953278"><ele>1113.9</ele></trkpt>
<trkpt lat="45.907309" lon="6.953403"><ele>1136.3</ele></trkpt>
<trkpt lat="45.909023" lon="6.952622"><ele>1133.7</ele></trkpt>
<trkpt lat="45.910427" lon="6.951005"><ele>1111.3</ele></trkpt>
<trkpt lat="45.911313" lon="6.948756"><ele>1089.0</ele></trkpt>
<trkpt lat="45.911542" lon="6.946192"><ele>1066.6</ele></trkpt>
<trkpt lat="45.911074" lon="6.943696"><ele>1044.2</ele></trkpt>
<trkpt lat="45.909976" lon="6.941648"><ele>1021.9</ele></trkpt>
<trkpt lat="45.908419" lon="6.940354"><ele>999.5</ele></trkpt>
<trkpt lat="45.906638" lon="6.939996"><ele>977.2</ele></trkpt>
<trkpt lat="45.904890" lon="6.940605"><ele>954.8</ele></trkpt>
<trkpt lat="45.903408" lon="6.942070"><ele>932.4</ele></trkpt>
<trkpt lat="45.902365" lon="6.944176"><ele>910.1</ele></trkpt>
<trkpt lat="45.901859" lon="6.946657"><ele>887.7</ele></trkpt>
<trkpt lat="45.901907" lon="6.949240"><ele>865.4</ele></trkpt>
<trkpt lat="45.902467" lon="6.951697"><ele>843.0</ele></trkpt>
<trkpt lat="45.903453" lon="6.953858"><ele>820.6</ele></trkpt>
<trkpt lat="45.904765" lon="6.955627"><ele>801.7</ele></trkpt>
<trkpt lat="45.906302" lon="6.956970"><ele>824.1</ele></trkpt>
<trkpt lat="45.907979" lon="6.957905"><ele>846.4</ele></trkpt>
<trkpt lat="45.909731" lon="6.958487"><ele>868.8</ele></trkpt>
<trkpt lat="45.911517" lon="6.958789"><ele>891.2</ele></trkpt>
<trkpt lat="45.913314" lon="6.958897"><ele>913.5</ele></trkpt>
<trkpt lat="45.915113" lon="6.958903"><ele>935.9</ele></trkpt>
<trkpt lat="45.916912" lon="6.958898"><ele>958.2</ele></trkpt>
<trkpt lat="45.918710" lon="6.958975"><ele>980.6</ele></trkpt>
<trkpt lat="45.920500" lon="6.959225"><ele>1003.0</ele></trkpt>
<trkpt lat="45.922263" lon="6.959735"><ele>1025.3</ele></trkpt>
<trkpt lat="45.923962" lon="6.960583"><ele>1047.7</ele></trkpt>
<trkpt lat="45.925538" lon="6.961830"><ele>1070.0</ele></trkpt>
<trkpt lat="45.926910" lon="6.963502"><ele>1092.4</ele></trkpt>
<trkpt lat="45.927980" lon="6.965580"><ele>1114.8</ele></trkpt>
<trkpt lat="45.928647" lon="6.967982"><ele>1137.1</ele></trkpt>
<trkpt lat="45.928818" lon="6.970556"><ele>1132.8</ele></trkpt>
<trkpt lat="45.928440" lon="6.973085"><ele>1110.5</ele></trkpt>
<trkpt lat="45.927516" lon="6.975303"><ele>1088.1</ele></trkpt>
<trkpt lat="45.926123" lon="6.976938"><ele>1065.7</ele></trkpt>
<trkpt lat="45.924417" lon="6.977758"><ele>1043.4</ele></trkpt>
<trkpt lat="45.922620" lon="6.977625"><ele>1021.0</ele></trkpt>
<trkpt lat="45.920989" lon="6.976536"><ele>998.7</ele></trkpt>
<trkpt lat="45.919768" lon="6.974638"><ele>976.3</ele></trkpt>
<trkpt lat="45.919144" lon="6.972213"><ele>953.9</ele></trkpt>
<trkpt lat="45.919213" lon="6.969629"><ele>931.6</ele></trkpt>
<trkpt lat="45.919957" lon="6.967275"><ele>909.2</ele></trkpt>
<trkpt lat="45.921258" lon="6.965490"><ele>886.9</ele></trkpt>
<trkpt lat="45.922921" lon="6.964505"><ele>864.5</ele></trkpt>
<trkpt lat="45.924719" lon="6.964423"><ele>842.1</ele></trkpt>
<trkpt lat="45.926431" lon="6.965214"><ele>819.8</ele></trkpt>
<trkpt lat="45.927879" lon="6.966748"><ele>802.6</ele></trkpt>
<trkpt lat="45.928944" lon="6.968832"><ele>824.9</ele></trkpt>
<trkpt lat="45.929569" lon="6.971257"><ele>847.3</ele></trkpt>
<trkpt lat="45.929753" lon="6.973829"><ele>869.7</ele></trkpt>
<trkpt lat="45.929536" lon="6.976396"><ele>892.0</ele></trkpt>
<trkpt lat="45.928978" lon="6.978855"><ele>914.4</ele></trkpt>
<trkpt lat="45.928153" lon="6.981152"><ele>936.7</ele></trkpt>
<trkpt lat="45.927129" lon="6.983279"><ele>959.1</ele></trkpt>
<trkpt lat="45.925971" lon="6.985257"><ele>981.5</ele></trkpt>
<trkpt lat="45.924732" lon="6.987132"><ele>1003.8</ele></trkpt>
<trkpt lat="45.923463" lon="6.988964"><ele>1026.2</ele></trkpt>
<trkpt lat="45.922209" lon="6.990817"><ele>1048.5</ele></trkpt>
<trkpt lat="45.921017" lon="6.992753"><ele>1070.9</ele></trkpt>
<trkpt lat="45.919940" lon="6.994824"><ele>1093.3</ele></trkpt>
<trkpt lat="45.919038" lon="6.997062"><ele>1115.6</ele></trkpt>
<trkpt lat="45.918381" lon="6.999468"><ele>1138.0</ele></trkpt>
<trkpt lat="45.918038" lon="7.002006"><ele>1132.0</ele></trkpt>
<trkpt lat="45.918078" lon="7.004591"><ele>1109.6</ele></trkpt>
<trkpt lat="45.918548" lon="7.007086"><ele>1087.2</ele></trkpt>
<trkpt lat="45.919464" lon="7.009311"><ele>1064.9</ele></trkpt>
<trkpt lat="45.920790" lon="7.011058"><ele>1042.5</ele></trkpt>
<trkpt lat="45.922429" lon="7.012124"><ele>1020.2</ele></trkpt>
<trkpt lat="45.924221" lon="7.012353"><ele>997.8</ele></trkpt>
<trkpt lat="45.925956" lon="7.011675"><ele>975.4</ele></trkpt>
<trkpt lat="45.927407" lon="7.010146"><ele>953.1</ele></trkpt>
<trkpt lat="45.928361" lon="7.007954"><ele>930.7</ele></trkpt>
<trkpt lat="45.928670" lon="7.005406"><ele>908.4</ele></trkpt>
<trkpt lat="45.928281" lon="7.002882"><ele>886.0</ele></trkpt>
<trkpt lat="45.927248" lon="7.000764"><ele>863.6</ele></trkpt>
<trkpt lat="45.925733" lon="6.999371"><ele>841.3</ele></trkpt>
<trkpt lat="45.923964" lon="6.998901"><ele>818.9</ele></trkpt>
<trkpt lat="45.922200" lon="6.999402"><ele>803.4</ele></trkpt>
<trkpt lat="45.920677" lon="7.000778"><ele>825.8</ele></trkpt>
<trkpt lat="45.919578" lon="7.002825"><ele>848.2</ele></trkpt>
<trkpt lat="45.919007" lon="7.005277"><ele>870.5</ele></trkpt>
<trkpt lat="45.918993" lon="7.007862"><ele>892.9</ele></trkpt>
<trkpt lat="45.919498" lon="7.010344"><ele>915.2</ele></trkpt>
<trkpt lat="45.920440" lon="7.012546"><ele>937.6</ele></trkpt>
<trkpt lat="45.921720" lon="7.014363"><ele>960.0</ele></trkpt>
<trkpt lat="45.923235" lon="7.015756"><ele>982.3</ele></trkpt>
<trkpt lat="45.924899" lon="7.016736"><ele>1004.7</ele></trkpt>
<trkpt lat="45.926646" lon="7.017355"><ele>1027.0</ele></trkpt>
<trkpt lat="45.928430" lon="7.017685"><ele>1049.4</ele></trkpt>
<trkpt lat="45.930226" lon="7.017811"><ele>1071.8</ele></trkpt>
<trkpt lat="45.932025" lon="7.017824"><ele>1094.1</ele></trkpt>
<trkpt lat="45.933824" lon="7.017816"><ele>1116.5</ele></trkpt>
<trkpt lat="45.935622" lon="7.017879"><ele>1138.8</ele></trkpt>
<trkpt lat="45.937413" lon="7.018104"><ele>1131.1</ele></trkpt>
<trkpt lat="45.939181" lon="7.018580"><ele>1108.7</ele></trkpt>
<trkpt lat="45.940890" lon="7.019386"><ele>1086.4</ele></trkpt>
<trkpt lat="45.942484" lon="7.020586"><ele>1064.0</ele></trkpt>
<trkpt lat="45.943884" lon="7.022209"><ele>1041.7</ele></trkpt>
<trkpt lat="45.944995" lon="7.024244"><ele>1019.3</ele></trkpt>
<trkpt lat="45.945712" lon="7.026616"><ele>996.9</ele></trkpt>
<trkpt lat="45.945945" lon="7.029181"><ele>974.6</ele></trkpt>
<trkpt lat="45.945631" lon="7.031728"><ele>952.2</ele></trkpt>
<trkpt lat="45.944767" lon="7.033997"><ele>929.9</ele></trkpt>
<trkpt lat="45.943421" lon="7.035713"><ele>907.5</ele></trkpt>
<trkpt lat="45.941741" lon="7.036636"><ele>885.1</ele></trkpt>
<trkpt lat="45.939942" lon="7.036616"><ele>862.8</ele></trkpt>
<trkpt lat="45.938279" lon="7.035632"><ele>840.4</ele></trkpt>
<trkpt lat="45.936999" lon="7.033814"><ele>818.1</ele></trkpt>
<trkpt lat="45.936300" lon="7.031431"><ele>804.3</ele></trkpt>
<trkpt lat="45.936288" lon="7.028845"><ele>826.7</ele></trkpt>
<trkpt lat="45.936959" lon="7.026445"><ele>849.0</ele></trkpt>
<trkpt lat="45.938205" lon="7.024579"><ele>871.4</ele></trkpt>
<trkpt lat="45.939837" lon="7.023494"><ele>893.7</ele></trkpt>
<trkpt lat="45.941631" lon="7.023307"><ele>916.1</ele></trkpt>
<trkpt lat="45.943364" lon="7.024003"><ele>938.5</ele></trkpt>
<trkpt lat="45.944849" lon="7.025461"><ele>960.8</ele></trkpt>
<trkpt lat="45.945962" lon="7.027493"><ele>983.2</ele></trkpt>
<trkpt lat="45.946639" lon="7.029890"><ele>1005.5</ele></trkpt>
<trkpt lat="45.946872" lon="7.032455"><ele>1027.9</ele></trkpt>
<trkpt lat="45.946698" lon="7.035030"><ele>1050.3</ele></trkpt>
<trkpt lat="45.946176" lon="7.037505"><ele>1072.6</ele></trkpt>
<trkpt lat="45.945378" lon="7.039823"><ele>1095.0</ele></trkpt>
<trkpt lat="45.944374" lon="7.041969"><ele>1117.3</ele></trkpt>
<trkpt lat="45.943228" lon="7.043963"><ele>1139.7</ele></trkpt>
<trkpt lat="45.941996" lon="7.045848"><ele>1130.2</ele></trkpt>
<trkpt lat="45.940728" lon="7.047682"><ele>1107.9</ele></trkpt>
<trkpt lat="45.939470" lon="7.049530"><ele>1085.5</ele></trkpt>
<trkpt lat="45.938268" lon="7.051455"><ele>1063.2</ele></trkpt>
<trkpt lat="45.937175" lon="7.053509"><ele>1040.8</ele></trkpt>
<trkpt lat="45.936250" lon="7.055727"><ele>1018.4</ele></trkpt>
<trkpt lat="45.935560" lon="7.058115"><ele>996.1</ele></trkpt>
<trkpt lat="45.935178" lon="7.060642"><ele>973.7</ele></trkpt>
<trkpt lat="45.935171" lon="7.063229"><ele>951.4</ele></trkpt>
<trkpt lat="45.935590" lon="7.065743"><ele>929.0</ele></trkpt>
<trkpt lat="45.936456" lon="7.068011"><ele>906.6</ele></trkpt>
<trkpt lat="45.937738" lon="7.069824"><ele>884.3</ele></trkpt>
<trkpt lat="45.939348" lon="7.070978"><ele>861.9</ele></trkpt>
<trkpt lat="45.941132" lon="7.071308"><ele>839.6</ele></trkpt>
<trkpt lat="45.942886" lon="7.070734"><ele>817.2</ele></trkpt>
<trkpt lat="45.944380" lon="7.069295"><ele>805.2</ele></trkpt>
<trkpt lat="45.945401" lon="7.067166"><ele>827.5</ele></trkpt>
<trkpt lat="45.945789" lon="7.064640"><ele>849.9</ele></trkpt>
<trkpt lat="45.945479" lon="7.062092"><ele>872.2</ele></trkpt>
<trkpt lat="45.944514" lon="7.059909"><ele>894.6</ele></trkpt>
<trkpt lat="45.943044" lon="7.058419"><ele>917.0</ele></trkpt>
<trkpt lat="45.941291" lon="7.057837"><ele>939.3</ele></trkpt>
<trkpt lat="45.939513" lon="7.058229"><ele>961.7</ele></trkpt>
<trkpt lat="45.937952" lon="7.059514"><ele>984.0</ele></trkpt>
<trkpt lat="45.936797" lon="7.061496"><ele>1006.4</ele></trkpt>
<trkpt lat="45.936163" lon="7.063917"><ele>1028.8</ele></trkpt>
<trkpt lat="45.936086" lon="7.066501"><ele>1051.1</ele></trkpt>
<trkpt lat="45.936534" lon="7.069005"><ele>1073.5</ele></trkpt>
<trkpt lat="45.937431" lon="7.071247"><ele>1095.8</ele></trkpt>
<trkpt lat="45.938677" lon="7.073112"><ele>1118.2</ele></trkpt>
<trkpt lat="45.940170" lon="7.074554"><ele>1140.6</ele></trkpt>
<trkpt lat="45.941821" lon="7.075580"><ele>1129.4</ele></trkpt>
<trkpt lat="45.943561" lon="7.076238"><ele>1107.0</ele></trkpt>
<trkpt lat="45.945342" lon="7.076597"><ele>1084.7</ele></trkpt>
<trkpt lat="45.947138" lon="7.076742"><ele>1062.3</ele></trkpt>
<trkpt lat="45.948937" lon="7.076763"><ele>1039.9</ele></trkpt>
<trkpt lat="45.950735" lon="7.076753"><ele>1017.6</ele></trkpt>
<trkpt lat="45.952534" lon="7.076803"><ele>995.2</ele></trkpt>
<trkpt lat="45.954327" lon="7.077005"><ele>972.9</ele></trkpt>
<trkpt lat="45.956099" lon="7.077448"><ele>950.5</ele></trkpt>
<trkpt lat="45.957817" lon="7.078213"><ele>928.1</ele></trkpt>
<trkpt lat="45.959428" lon="7.079365"><ele>905.8</ele></trkpt>
<trkpt lat="45.960855" lon="7.080940"><ele>883.4</ele></trkpt>
<trkpt lat="45.962004" lon="7.082931"><ele>861.1</ele></trkpt>
<trkpt lat="45.962772" lon="7.085270"><ele>838.7</ele></trkpt>
<trkpt lat="45.963064" lon="7.087824"><ele>816.3</ele></trkpt>
<trkpt lat="45.962814" lon="7.090386"><ele>806.0</ele></trkpt>
<trkpt lat="45.962012" lon="7.092702"><ele>828.4</ele></trkpt>
<trkpt lat="45.960715" lon="7.094495"><ele>850.7</ele></trkpt>
<trkpt lat="45.959063" lon="7.095519"><ele>873.1</ele></trkpt>
<trkpt lat="45.957266" lon="7.095612"><ele>895.5</ele></trkpt>
<trkpt lat="45.955574" lon="7.094734"><ele>917.8</ele></trkpt>
<trkpt lat="45.954239" lon="7.093001"><ele>940.2</ele></trkpt>
<trkpt lat="45.953466" lon="7.090665"><ele>962.5</ele></trkpt>
<trkpt lat="45.953372" lon="7.088081"><ele>984.9</ele></trkpt>
<trkpt lat="45.953968" lon="7.085640"><ele>1007.3</ele></trkpt>
<trkpt lat="45.955156" lon="7.083697"><ele>1029.6</ele></trkpt>
<trkpt lat="45.956756" lon="7.082514"><ele>1052.0</ele></trkpt>
<trkpt lat="45.958543" lon="7.082222"><ele>1074.3</ele></trkpt>
<trkpt lat="45.960293" lon="7.082821"><ele>1096.7</ele></trkpt>
<trkpt lat="45.961814" lon="7.084200"><ele>1119.1</ele></trkpt>
<trkpt lat="45.962974" lon="7.086178"><ele>1141.4</ele></trkpt>
<trkpt lat="45.963702" lon="7.088544"><ele>1128.5</ele></trkpt>
<trkpt lat="45.963986" lon="7.091099"><ele>1106.2</ele></trkpt>
<trkpt lat="45.963856" lon="7.093680"><ele>1083.8</ele></trkpt>
<trkpt lat="45.963370" lon="7.096172"><ele>1061.4</ele></trkpt>
<trkpt lat="45.962600" lon="7.098510"><ele>1039.1</ele></trkpt>
<trkpt lat="45.961616" lon="7.100676"><ele>1016.7</ele></trkpt>
<trkpt lat="45.960484" lon="7.102686"><ele>994.4</ele></trkpt>
<trkpt lat="45.959259" lon="7.104581"><ele>972.0</ele></trkpt>
<trkpt lat="45.957993" lon="7.106419"><ele>949.6</ele></trkpt>
<trkpt lat="45.956731" lon="7.108262"><ele>927.3</ele></trkpt>
<trkpt lat="45.955520" lon="7.110176"><ele>904.9</ele></trkpt>
<trkpt lat="45.954412" lon="7.112213"><ele>882.6</ele></trkpt>
<trkpt lat="45.953464" lon="7.114412"><ele>860.2</ele></trkpt>
<trkpt lat="45.952744" lon="7.116783"><ele>837.8</ele></trkpt>
<trkpt lat="45.952323" lon="7.119298"><ele>815.5</ele></trkpt>
<trkpt lat="45.952269" lon="7.121883"><ele>806.9</ele></trkpt>
<trkpt lat="45.952638" lon="7.124416"><ele>829.2</ele></trkpt>
<trkpt lat="45.953452" lon="7.126722"><ele>851.6</ele></trkpt>
<trkpt lat="45.954690" lon="7.128599"><ele>874.0</ele></trkpt>
<trkpt lat="45.956269" lon="7.129839"><ele>896.3</ele></trkpt>
<trkpt lat="45.958043" lon="7.130270"><ele>918.7</ele></trkpt>
<trkpt lat="45.959811" lon="7.129800"><ele>941.0</ele></trkpt>
<trkpt lat="45.961347" lon="7.128454"><ele>963.4</ele></trkpt>
<trkpt lat="45.962432" lon="7.126390"><ele>985.8</ele></trkpt>
<trkpt lat="45.962898" lon="7.123891"><ele>1008.1</ele></trkpt>
<trkpt lat="45.962668" lon="7.121325"><ele>1030.5</ele></trkpt>
<trkpt lat="45.961773" lon="7.119081"><ele>1052.8</ele></trkpt>
<trkpt lat="45.960351" lon="7.117497"><ele>1075.2</ele></trkpt>
<trkpt lat="45.958618" lon="7.116805"><ele>1097.6</ele></trkpt>
<trkpt lat="45.956830" lon="7.117086"><ele>1119.9</ele></trkpt>
<trkpt lat="45.955233" lon="7.118276"><ele>1142.3</ele></trkpt>
<trkpt lat="45.954024" lon="7.120192"><ele>1127.7</ele></trkpt>
<trkpt lat="45.953327" lon="7.122577"><ele>1105.3</ele></trkpt>
<trkpt lat="45.953186" lon="7.125156"><ele>1082.9</ele></trkpt>
<trkpt lat="45.953577" lon="7.127681"><ele>1060.6</ele></trkpt>
<trkpt lat="45.954427" lon="7.129961"><ele>1038.2</ele></trkpt>
<trkpt lat="45.955638" lon="7.131874"><ele>1015.9</ele></trkpt>
<trkpt lat="45.957108" lon="7.133365"><ele>993.5</ele></trkpt>
<trkpt lat="45.958745" lon="7.134438"><ele>971.1</ele></trkpt>
<trkpt lat="45.960477" lon="7.135134"><ele>948.8</ele></trkpt>
<trkpt lat="45.962255" lon="7.135524"><ele>926.4</ele></trkpt>
<trkpt lat="45.964050" lon="7.135689"><ele>904.1</ele></trkpt>
<trkpt lat="45.965848" lon="7.135720"><ele>881.7</ele></trkpt>
<trkpt lat="45.967647" lon="7.135709"><ele>859.3</ele></trkpt>
<trkpt lat="45.969445" lon="7.135747"><ele>837.0</ele></trkpt>
<trkpt lat="45.971240" lon="7.135927"><ele>814.6</ele></trkpt>
<trkpt lat="45.973016" lon="7.136338"><ele>807.7</ele></trkpt>
<trkpt lat="45.974742" lon="7.137063"><ele>830.1</ele></trkpt>
<trkpt lat="45.976369" lon="7.138168"><ele>852.5</ele></trkpt>
<trkpt lat="45.977821" lon="7.139694"><ele>874.8</ele></trkpt>
<trkpt lat="45.979007" lon="7.141640"><ele>897.2</ele></trkpt>
<trkpt lat="45.979824" lon="7.143946"><ele>919.5</ele></trkpt>
<trkpt lat="45.980175" lon="7.146484"><ele>941.9</ele></trkpt>
<trkpt lat="45.979990" lon="7.149059"><ele>964.3</ele></trkpt>
<trkpt lat="45.979250" lon="7.151417"><ele>986.6</ele></trkpt>
<trkpt lat="45.978004" lon="7.153285"><ele>1009.0</ele></trkpt>
<trkpt lat="45.976384" lon="7.154409"><ele>1031.3</ele></trkpt>
<trkpt lat="45.974591" lon="7.154613"><ele>1053.7</ele></trkpt>
<trkpt lat="45.972874" lon="7.153844"><ele>1076.1</ele></trkpt>
<trkpt lat="45.971486" lon="7.152198"><ele>1098.4</ele></trkpt>
<trkpt lat="45.970640" lon="7.149914"><ele>1120.8</ele></trkpt>
<trkpt lat="45.970466" lon="7.147338"><ele>1143.1</ele></trkpt>
<trkpt lat="45.970986" lon="7.144860"><ele>1126.8</ele></trkpt>
<trkpt lat="45.972113" lon="7.142844"><ele>1104.4</ele></trkpt>
<trkpt lat="45.973676" lon="7.141564"><ele>1082.1</ele></trkpt>
<trkpt lat="45.975454" lon="7.141167"><ele>1059.7</ele></trkpt>
<trkpt lat="45.977218" lon="7.141667"><ele>1037.4</ele></trkpt>
<trkpt lat="45.978774" lon="7.142966"><ele>1015.0</ele></trkpt>
<trkpt lat="45.979981" lon="7.144885"><ele>992.6</ele></trkpt>
<trkpt lat="45.980760" lon="7.147218"><ele>970.3</ele></trkpt>
<trkpt lat="45.981094" lon="7.149762"><ele>947.9</ele></trkpt>
<trkpt lat="45.981009" lon="7.152347"><ele>925.6</ele></trkpt>
<trkpt lat="45.980561" lon="7.154854"><ele>903.2</ele></trkpt>
<trkpt lat="45.979820" lon="7.157212"><ele>880.8</ele></trkpt>
<trkpt lat="45.978857" lon="7.159399"><ele>858.5</ele></trkpt>
<trkpt lat="45.977738" lon="7.161425"><ele>836.1</ele></trkpt>
<trkpt lat="45.976522" lon="7.163332"><ele>813.8</ele></trkpt>
<trkpt lat="45.975258" lon="7.165173"><ele>808.6</ele></trkpt>
<trkpt lat="45.973993" lon="7.167013"><ele>831.0</ele></trkpt>
<trkpt lat="45.972774" lon="7.168916"><ele>853.3</ele></trkpt>
<trkpt lat="45.971651" lon="7.170938"><ele>875.7</ele></trkpt>
<trkpt lat="45.970682" lon="7.173118"><ele>898.0</ele></trkpt>
<trkpt lat="45.969932" lon="7.175470"><ele>920.4</ele></trkpt>
<trkpt lat="45.969472" lon="7.177972"><ele>942.8</ele></trkpt>
<trkpt lat="45.969373" lon="7.180556"><ele>965.1</ele></trkpt>
<trkpt lat="45.969691" lon="7.183103"><ele>987.5</ele></trkpt>
<trkpt lat="45.970455" lon="7.185446"><ele>1009.8</ele></trkpt>
<trkpt lat="45.971647" lon="7.187384"><ele>1032.2</ele></trkpt>
<trkpt lat="45.973193" lon="7.188707"><ele>1054.6</ele></trkpt>
<trkpt lat="45.974953" lon="7.189238"><ele>1076.9</ele></trkpt>
<trkpt lat="45.976734" lon="7.188873"><ele>1099.3</ele></trkpt>
<trkpt lat="45.978308" lon="7.187622"><ele>1121.6</ele></trkpt>
<trkpt lat="45.979455" lon="7.185628"><ele>1144.0</ele></trkpt>
<trkpt lat="45.979998" lon="7.183160"><ele>1125.9</ele></trkpt>
<trkpt lat="45.979849" lon="7.180581"><ele>1103.6</ele></trkpt>
<trkpt lat="45.979025" lon="7.178280"><ele>1081.2</ele></trkpt>
<trkpt lat="45.977653" lon="7.176606"><ele>1058.9</ele></trkpt>
<trkpt lat="45.975943" lon="7.175803"><ele>1036.5</ele></trkpt>
<trkpt lat="45.974149" lon="7.175973"><ele>1014.1</ele></trkpt>
<trkpt lat="45.972518" lon="7.177067"><ele>991.8</ele></trkpt>
<trkpt lat="45.971257" lon="7.178912"><ele>969.4</ele></trkpt>
<trkpt lat="45.970497" lon="7.181257"><ele>947.1</ele></trkpt>
<trkpt lat="45.970293" lon="7.183828"><ele>924.7</ele></trkpt>
<trkpt lat="45.970625" lon="7.186372"><ele>902.3</ele></trkpt>
<trkpt lat="45.971428" lon="7.188688"><ele>880.0</ele></trkpt>
<trkpt lat="45.972602" lon="7.190648"><ele>857.6</ele></trkpt>
<trkpt lat="45.974047" lon="7.192189"><ele>835.3</ele></trkpt>
<trkpt lat="45.975669" lon="7.193308"><ele>812.9</ele></trkpt>
<trkpt lat="45.977393" lon="7.194045"><ele>809.5</ele></trkpt>
<trkpt lat="45.979168" lon="7.194466"><ele>831.8</ele></trkpt>
<trkpt lat="45.980962" lon="7.194653"><ele>854.2</ele></trkpt>
<trkpt lat="45.982760" lon="7.194695"><ele>876.5</ele></trkpt>
<trkpt lat="45.984559" lon="7.194683"><ele>898.9</ele></trkpt>
<trkpt lat="45.986357" lon="7.194711"><ele>921.3</ele></trkpt>
<trkpt lat="45.988153" lon="7.194871"><ele>943.6</ele></trkpt>
<trkpt lat="45.989932" lon="7.195251"><ele>966.0</ele></trkpt>
<trkpt lat="45.991666" lon="7.195935"><ele>988.3</ele></trkpt>
<trkpt lat="45.993308" lon="7.196995"><ele>1010.7</ele></trkpt>
<trkpt lat="45.994785" lon="7.198472"><ele>1033.1</ele></trkpt>
<trkpt lat="45.996006" lon="7.200372"><ele>1055.4</ele></trkpt>
<trkpt lat="45.996871" lon="7.202642"><ele>1077.8</ele></trkpt>
<trkpt lat="45.997280" lon="7.205163"><ele>1100.1</ele></trkpt>
<trkpt lat="45.997159" lon="7.207747"><ele>1122.5</ele></trkpt>
<trkpt lat="45.996481" lon="7.210145"><ele>1144.9</ele></trkpt>
<trkpt lat="45.995288" lon="7.212083"><ele>1125.1</ele></trkpt>
<trkpt lat="45.993702" lon="7.213304"><ele>1102.7</ele></trkpt>
<trkpt lat="45.991917" lon="7.213619"><ele>1080.4</ele></trkpt>
<trkpt lat="45.990178" lon="7.212960"><ele>1058.0</ele></trkpt>
<trkpt lat="45.988740" lon="7.211404"><ele>1035.6</ele></trkpt>
<trkpt lat="45.987823" lon="7.209177"><ele>1013.3</ele></trkpt>
<trkpt lat="45.987569" lon="7.206615"><ele>990.9</ele></trkpt>
<trkpt lat="45.988011" lon="7.204105"><ele>968.6</ele></trkpt>
<trkpt lat="45.989076" lon="7.202019"><ele>946.2</ele></trkpt>
<trkpt lat="45.990600" lon="7.200644"><ele>923.8</ele></trkpt>
<trkpt lat="45.992364" lon="7.200142"><ele>901.5</ele></trkpt>
<trkpt lat="45.994141" lon="7.200542"><ele>879.1</ele></trkpt>
<trkpt lat="45.995730" lon="7.201757"><ele>856.8</ele></trkpt>
<trkpt lat="45.996981" lon="7.203616"><ele>834.4</ele></trkpt>
<trkpt lat="45.997812" lon="7.205913"><ele>812.0</ele></trkpt>
<trkpt lat="45.998196" lon="7.208442"><ele>810.3</ele></trkpt>
<trkpt lat="45.998157" lon="7.211031"><ele>832.7</ele></trkpt>
<trkpt lat="45.997747" lon="7.213552"><ele>855.0</ele></trkpt>
<trkpt lat="45.997036" lon="7.215930"><ele>877.4</ele></trkpt>
<trkpt lat="45.996096" lon="7.218137"><ele>899.8</ele></trkpt>
<trkpt lat="45.994992" lon="7.220181"><ele>922.1</ele></trkpt>
<trkpt lat="45.993784" lon="7.222099"><ele>944.5</ele></trkpt>
<trkpt lat="45.992523" lon="7.223946"><ele>966.8</ele></trkpt>
<trkpt lat="45.991256" lon="7.225783"><ele>989.2</ele></trkpt>
<trkpt lat="45.990029" lon="7.227677"><ele>1011.6</ele></trkpt>
<trkpt lat="45.988892" lon="7.229683"><ele>1033.9</ele></trkpt>
<trkpt lat="45.987902" lon="7.231844"><ele>1056.3</ele></trkpt>
<trkpt lat="45.987123" lon="7.234177"><ele>1078.6</ele></trkpt>
<trkpt lat="45.986627" lon="7.236665"><ele>1101.0</ele></trkpt>
<trkpt lat="45.986483" lon="7.239246"><ele>1123.4</ele></trkpt>
<trkpt lat="45.986751" lon="7.241805"><ele>1145.7</ele></trkpt>
<trkpt lat="45.987463" lon="7.244182"><ele>1124.2</ele></trkpt>
<trkpt lat="45.988609" lon="7.246178"><ele>1101.9</ele></trkpt>
<trkpt lat="45.990120" lon="7.247583"><ele>1079.5</ele></trkpt>
<trkpt lat="45.991864" lon="7.248212"><ele>1057.1</ele></trkpt>
<trkpt lat="45.993654" lon="7.247952"><ele>1034.8</ele></trkpt>
<trkpt lat="45.995264" lon="7.246798"><ele>1012.4</ele></trkpt>
<trkpt lat="45.996470" lon="7.244877"><ele>990.1</ele></trkpt>
<trkpt lat="45.997089" lon="7.242446"><ele>967.7</ele></trkpt>
<trkpt lat="45.997020" lon="7.239859"><ele>945.3</ele></trkpt>
<trkpt lat="45.996270" lon="7.237506"><ele>923.0</ele></trkpt>
<trkpt lat="45.994952" lon="7.235744"><ele>900.6</ele></trkpt>
<trkpt lat="45.993268" lon="7.234833"><ele>878.3</ele></trkpt>
<trkpt lat="45.991470" lon="7.234891"><ele>855.9</ele></trkpt>
<trkpt lat="45.989809" lon="7.235886"><ele>833.5</ele></trkpt>
<trkpt lat="45.988497" lon="7.237656"><ele>811.2</ele></trkpt>
</trkseg></trk>
</gpx>
