<?xml version="1.0" encoding="UTF-8"?>
<gpx version="1.1" creator="OTRI calibration fixture generator" xmlns="http://www.topografix.com/GPX/1/1">
<trk><name>CAL-HALF (synthetic calibration fixture, not a real course)</name><trkseg>
<trkpt lat="45.900000" lon="6.900000"><ele>800.0</ele></trkpt>
<trkpt lat="45.901798" lon="6.900092"><ele>819.0</ele></trkpt>
<trkpt lat="45.903586" lon="6.900367"><ele>837.9</ele></trkpt>
<trkpt lat="45.905344" lon="6.900912"><ele>856.9</ele></trkpt>
<trkpt lat="45.907032" lon="6.901804"><ele>875.8</ele></trkpt>
<trkpt lat="45.908589" lon="6.903098"><ele>894.8</ele></trkpt>
<trkpt lat="45.909932" lon="6.904819"><ele>913.7</ele></trkpt>
<trkpt lat="45.910961" lon="6.906939"><ele>932.7</ele></trkpt>
<trkpt lat="45.911574" lon="6.909369"><ele>951.7</ele></trkpt>
<trkpt lat="45.911685" lon="6.911949"><ele>970.6</ele></trkpt>
<trkpt lat="45.911243" lon="6.914455"><ele>989.6</ele></trkpt>
<trkpt lat="45.910259" lon="6.916619"><ele>1008.5</ele></trkpt>
<trkpt lat="45.908820" lon="6.918170"><ele>1027.5</ele></trkpt>
<trkpt lat="45.907091" lon="6.918885"><ele>1046.4</ele></trkpt>
<trkpt lat="45.905301" lon="6.918640"><ele>1034.6</ele></trkpt>
<trkpt lat="45.903705" lon="6.917448"><ele>1015.6</ele></trkpt>
<trkpt lat="45.902544" lon="6.915473"><ele>996.7</ele></trkpt>
<trkpt lat="45.901998" lon="6.913011"><ele>977.7</ele></trkpt>
<trkpt lat="45.902147" lon="6.910435"><ele>958.8</ele></trkpt>
<trkpt lat="45.902963" lon="6.908132"><ele>939.8</ele></trkpt>
<trkpt lat="45.904316" lon="6.906429"><ele>920.9</ele></trkpt>
<trkpt lat="45.906007" lon="6.905546"><ele>901.9</ele></trkpt>
<trkpt lat="45.907805" lon="6.905568"><ele>882.9</ele></trkpt>
<trkpt lat="45.909496" lon="6.906452"><ele>864.0</ele></trkpt>
<trkpt lat="45.910904" lon="6.908059"><ele>845.0</ele></trkpt>
<trkpt lat="45.911920" lon="6.910193"><ele>826.1</ele></trkpt>
<trkpt lat="45.912493" lon="6.912643"><ele>807.1</ele></trkpt>
<trkpt lat="45.912629" lon="6.915221"><ele>811.8</ele></trkpt>
<trkpt lat="45.912369" lon="6.917779"><ele>830.8</ele></trkpt>
<trkpt lat="45.911777" lon="6.920220"><ele>849.8</ele></trkpt>
<trkpt lat="45.910925" lon="6.922497"><ele>868.7</ele></trkpt>
<trkpt lat="45.909883" lon="6.924604"><ele>887.7</ele></trkpt>
<trkpt lat="45.908713" lon="6.926567"><ele>906.6</ele></trkpt>
<trkpt lat="45.907468" lon="6.928434"><ele>925.6</ele></trkpt>
<trkpt lat="45.906199" lon="6.930264"><ele>944.5</ele></trkpt>
<trkpt lat="45.904949" lon="6.932123"><ele>963.5</ele></trkpt>
<trkpt lat="45.903767" lon="6.934072"><ele>982.5</ele></trkpt>
<trkpt lat="45.902707" lon="6.936160"><ele>1001.4</ele></trkpt>
<trkpt lat="45.901830" lon="6.938417"><ele>1020.4</ele></trkpt>
<trkpt lat="45.901205" lon="6.940840"><ele>1039.3</ele></trkpt>
<trkpt lat="45.900903" lon="6.943388"><ele>1041.7</ele></trkpt>
<trkpt lat="45.900991" lon="6.945970"><ele>1022.7</ele></trkpt>
<trkpt lat="45.901513" lon="6.948443"><ele>1003.8</ele></trkpt>
<trkpt lat="45.902479" lon="6.950623"><ele>984.8</ele></trkpt>
<trkpt lat="45.903847" lon="6.952302"><ele>965.9</ele></trkpt>
<trkpt lat="45.905512" lon="6.953278"><ele>946.9</ele></trkpt>
<trkpt lat="45.907309" lon="6.953403"><ele>928.0</ele></trkpt>
<trkpt lat="45.909023" lon="6.952622"><ele>909.0</ele></trkpt>
<trkpt lat="45.910427" lon="6.951005"><ele>890.0</ele></trkpt>
<trkpt lat="45.911313" lon="6.948756"><ele>871.1</ele></trkpt>
<trkpt lat="45.911542" lon="6.946192"><ele>852.1</ele></trkpt>
<trkpt lat="45.911074" lon="6.943696"><ele>833.2</ele></trkpt>
<trkpt lat="45.909976" lon="6.941648"><ele>814.2</ele></trkpt>
<trkpt lat="45.908419" lon="6.940354"><ele>804.7</ele></trkpt>
<trkpt lat="45.906638" lon="6.939996"><ele>823.7</ele></trkpt>
<trkpt lat="45.904890" lon="6.940605"><ele>842.7</ele></trkpt>
<trkpt lat="45.903408" lon="6.942070"><ele>861.6</ele></trkpt>
<trkpt lat="45.902365" lon="6.944176"><ele>880.6</ele></trkpt>
<trkpt lat="45.901859" lon="6.946657"><ele>899.5</ele></trkpt>
<trkpt lat="45.901907" lon="6.949240"><ele>918.5</ele></trkpt>
<trkpt lat="45.902467" lon="6.951697"><ele>937.4</ele></trkpt>
<trkpt lat="45.903453" lon="6.953858"><ele>956.4</ele></trkpt>
<trkpt lat="45.904765" lon="6.955627"><ele>975.4</ele></trkpt>
<trkpt lat="45.906302" lon="6.956970"><ele>994.3</ele></trkpt>
<trkpt lat="45.907979" lon="6.957905"><ele>1013.3</ele></trkpt>
<trkpt lat="45.909731" lon="6.958487"><ele>1032.2</ele></trkpt>
<trkpt lat="45.911517" lon="6.958789"><ele>1048.8</ele></trkpt>
<trkpt lat="45.913314" lon="6.958897"><ele>1029.9</ele></trkpt>
<trkpt lat="45.915113" lon="6.958903"><ele>1010.9</ele></trkpt>
<trkpt lat="45.916912" lon="6.958898"><ele>991.9</ele></trkpt>
<trkpt lat="45.918710" lon="6.958975"><ele>973.0</ele></trkpt>
<trkpt lat="45.920500" lon="6.959225"><ele>954.0</ele></trkpt>
<trkpt lat="45.922263" lon="6.959735"><ele>935.1</ele></trkpt>
<trkpt lat="45.923962" lon="6.960583"><ele>916.1</ele></trkpt>
<trkpt lat="45.925538" lon="6.961830"><ele>897.2</ele></trkpt>
<trkpt lat="45.926910" lon="6.963502"><ele>878.2</ele></trkpt>
<trkpt lat="45.927980" lon="6.965580"><ele>859.2</ele></trkpt>
<trkpt lat="45.928647" lon="6.967982"><ele>840.3</ele></trkpt>
<trkpt lat="45.928818" lon="6.970556"><ele>821.3</ele></trkpt>
<trkpt lat="45.928440" lon="6.973085"><ele>802.4</ele></trkpt>
<trkpt lat="45.927516" lon="6.975303"><ele>816.6</ele></trkpt>
<trkpt lat="45.926123" lon="6.976938"><ele>835.5</ele></trkpt>
<trkpt lat="45.924417" lon="6.977758"><ele>854.5</ele></trkpt>
<trkpt lat="45.922620" lon="6.977625"><ele>873.5</ele></trkpt>
<trkpt lat="45.920989" lon="6.976536"><ele>892.4</ele></trkpt>
<trkpt lat="45.919768" lon="6.974638"><ele>911.4</ele></trkpt>
<trkpt lat="45.919144" lon="6.972213"><ele>930.3</ele></trkpt>
<trkpt lat="45.919213" lon="6.969629"><ele>949.3</ele></trkpt>
<trkpt lat="45.919957" lon="6.967275"><ele>968.2</ele></trkpt>
<trkpt lat="45.921258" lon="6.965490"><ele>987.2</ele></trkpt>
<trkpt lat="45.922921" lon="6.964505"><ele>1006.2</ele></trkpt>
<trkpt lat="45.924719" lon="6.964423"><ele>1025.1</ele></trkpt>
<trkpt lat="45.926431" lon="6.965214"><ele>1044.1</ele></trkpt>
<trkpt lat="45.927879" lon="6.966748"><ele>1037.0</ele></trkpt>
<trkpt lat="45.928944" lon="6.968832"><ele>1018.0</ele></trkpt>
<trkpt lat="45.929569" lon="6.971257"><ele>999.1</ele></trkpt>
<trkpt lat="45.929753" lon="6.973829"><ele>980.1</ele></trkpt>
<trkpt lat="45.929536" lon="6.976396"><ele>961.1</ele></trkpt>
<trkpt lat="45.928978" lon="6.978855"><ele>942.2</ele></trkpt>
<trkpt lat="45.928153" lon="6.981152"><ele>923.2</ele></trkpt>
<trkpt lat="45.927129" lon="6.983279"><ele>904.3</ele></trkpt>
<trkpt lat="45.925971" lon="6.985257"><ele>885.3</ele></trkpt>
<trkpt lat="45.924732" lon="6.987132"><ele>866.4</ele></trkpt>
<trkpt lat="45.923463" lon="6.988964"><ele>847.4</ele></trkpt>
<trkpt lat="45.922209" lon="6.990817"><ele>828.4</ele></trkpt>
<trkpt lat="45.921017" lon="6.992753"><ele>809.5</ele></trkpt>
</trkseg></trk>
</gpx>
