<?xml version="1.0" encoding="UTF-8"?>
<gpx version="1.1" creator="OTRI calibration fixture generator" xmlns="http://www.topografix.com/GPX/1/1">
<trk><name>CAL-50K (synthetic calibration fixture, not a real course)</name><trkseg>
<trkpt lat="45.900000" lon="6.900000"><ele>800.0</ele></trkpt>
<trkpt lat="45.901798" lon="6.900092"><ele>824.0</ele></trkpt>
<trkpt lat="45.903586" lon="6.900367"><ele>848.0</ele></trkpt>
<trkpt lat="45.905344" lon="6.900912"><ele>872.0</ele></trkpt>
<trkpt lat="45.907032" lon="6.901804"><ele>896.0</ele></trkpt>
<trkpt lat="45.908589" lon="6.903098"><ele>920.0</ele></trkpt>
<trkpt lat="45.909932" lon="6.904819"><ele>944.0</ele></trkpt>
<trkpt lat="45.910961" lon="6.906939"><ele>968.0</ele></trkpt>
<trkpt lat="45.911574" lon="6.909369"><ele>992.0</ele></trkpt>
<trkpt lat="45.911685" lon="6.911949"><ele>1016.0</ele></trkpt>
<trkpt lat="45.911243" lon="6.914455"><ele>1040.0</ele></trkpt>
<trkpt lat="45.910259" lon="6.916619"><ele>1064.0</ele></trkpt>
<trkpt lat="45.908820" lon="6.918170"><ele>1088.0</ele></trkpt>
<trkpt lat="45.907091" lon="6.918885"><ele>1112.0</ele></trkpt>
<trkpt lat="45.905301" lon="6.918640"><ele>1136.0</ele></trkpt>
<trkpt lat="45.903705" lon="6.917448"><ele>1160.0</ele></trkpt>
<trkpt lat="45.902544" lon="6.915473"><ele>1166.0</ele></trkpt>
<trkpt lat="45.901998" lon="6.913011"><ele>1142.0</ele></trkpt>
<trkpt lat="45.902147" lon="6.910435"><ele>1118.0</ele></trkpt>
<trkpt lat="45.902963" lon="6.908132"><ele>1094.0</ele></trkpt>
<trkpt lat="45.904316" lon="6.906429"><ele>1070.0</ele></trkpt>
<trkpt lat="45.906007" lon="6.905546"><ele>1046.0</ele></trkpt>
<trkpt lat="45.907805" lon="6.905568"><ele>1022.0</ele></trkpt>
<trkpt lat="45.909496" lon="6.906452"><ele>998.0</ele></trkpt>
<trkpt lat="45.910904" lon="6.908059"><ele>974.0</ele></trkpt>
<trkpt lat="45.911920" lon="6.910193"><ele>950.0</ele></trkpt>
<trkpt lat="45.912493" lon="6.912643"><ele>926.0</ele></trkpt>
<trkpt lat="45.912629" lon="6.915221"><ele>902.0</ele></trkpt>
<trkpt lat="45.912369" lon="6.917779"><ele>878.0</ele></trkpt>
<trkpt lat="45.911777" lon="6.920220"><ele>854.0</ele></trkpt>
<trkpt lat="45.910925" lon="6.922497"><ele>830.0</ele></trkpt>
<trkpt lat="45.909883" lon="6.924604"><ele>806.0</ele></trkpt>
<trkpt lat="45.908713" lon="6.926567"><ele>818.0</ele></trkpt>
<trkpt lat="45.907468" lon="6.928434"><ele>842.0</ele></trkpt>
<trkpt lat="45.906199" lon="6.930264"><ele>866.0</ele></trkpt>
<trkpt lat="45.904949" lon="6.932123"><ele>890.0</ele></trkpt>
<trkpt lat="45.903767" lon="6.934072"><ele>914.0</ele></trkpt>
<trkpt lat="45.902707" lon="6.936160"><ele>938.0</ele></trkpt>
<trkpt lat="45.901830" lon="6.938417"><ele>962.0</ele></trkpt>
<trkpt lat="45.901205" lon="6.940840"><ele>986.0</ele></trkpt>
<trkpt lat="45.900903" lon="6.943388"><ele>1010.0</ele></trkpt>
<trkpt lat="45.900991" lon="6.945970"><ele>1034.0</ele></trkpt>
<trkpt lat="45.901513" lon="6.948443"><ele>1058.0</ele></trkpt>
<trkpt lat="45.902479" lon="6.950623"><ele>1082.0</ele></trkpt>
<trkpt lat="45.903847" lon="6.952302"><ele>1106.0</ele></trkpt>
<trkpt lat="45.905512" lon="6.953278"><ele>1130.0</ele></trkpt>
<trkpt lat="45.907309" lon="6.953403"><ele>1154.0</ele></trkpt>
<trkpt lat="45.909023" lon="6.952622"><ele>1172.0</ele></trkpt>
<trkpt lat="45.910427" lon="6.951005"><ele>1148.0</ele></trkpt>
<trkpt lat="45.911313" lon="6.948756"><ele>1124.0</ele></trkpt>
<trkpt lat="45.911542" lon="6.946192"><ele>1100.0</ele></trkpt>
<trkpt lat="45.911074" lon="6.943696"><ele>1076.0</ele></trkpt>
<trkpt lat="45.909976" lon="6.941648"><ele>1052.0</ele></trkpt>
<trkpt lat="45.908419" lon="6.940354"><ele>1028.0</ele></trkpt>
<trkpt lat="45.906638" lon="6.939996"><ele>1004.0</ele></trkpt>
<trkpt lat="45.904890" lon="6.940605"><ele>980.0</ele></trkpt>
<trkpt lat="45.903408" lon="6.942070"><ele>956.0</ele></trkpt>
<trkpt lat="45.902365" lon="6.944176"><ele>932.0</ele></trkpt>
<trkpt lat="45.901859" lon="6.946657"><ele>908.0</ele></trkpt>
<trkpt lat="45.901907" lon="6.949240"><ele>884.0</ele></trkpt>
<trkpt lat="45.902467" lon="6.951697"><ele>860.0</ele></trkpt>
<trkpt lat="45.903453" lon="6.953858"><ele>836.0</ele></trkpt>
<trkpt lat="45.904765" lon="6.955627"><ele>812.0</ele></trkpt>
<trkpt lat="45.906302" lon="6.956970"><ele>812.0</ele></trkpt>
<trkpt lat="45.907979" lon="6.957905"><ele>836.0</ele></trkpt>
<trkpt lat="45.909731" lon="6.958487"><ele>860.0</ele></trkpt>
<trkpt lat="45.911517" lon="6.958789"><ele>884.0</ele></trkpt>
<trkpt lat="45.913314" lon="6.958897"><ele>908.0</ele></trkpt>
<trkpt lat="45.915113" lon="6.958903"><ele>932.0</ele></trkpt>
<trkpt lat="45.916912" lon="6.958898"><ele>956.0</ele></trkpt>
<trkpt lat="45.918710" lon="6.958975"><ele>980.0</ele></trkpt>
<trkpt lat="45.920500" lon="6.959225"><ele>1004.0</ele></trkpt>
<trkpt lat="45.922263" lon="6.959735"><ele>1028.0</ele></trkpt>
<trkpt lat="45.923962" lon="6.960583"><ele>1052.0</ele></trkpt>
<trkpt lat="45.925538" lon="6.961830"><ele>1076.0</ele></trkpt>
<trkpt lat="45.926910" lon="6.963502"><ele>1100.0</ele></trkpt>
<trkpt lat="45.927980" lon="6.965580"><ele>1124.0</ele></trkpt>
<trkpt lat="45.928647" lon="6.967982"><ele>1148.0</ele></trkpt>
<trkpt lat="45.928818" lon="6.970556"><ele>1172.0</ele></trkpt>
<trkpt lat="45.928440" lon="6.973085"><ele>1154.0</ele></trkpt>
<trkpt lat="45.927516" lon="6.975303"><ele>1130.0</ele></trkpt>
<trkpt lat="45.926123" lon="6.976938"><ele>1106.0</ele></trkpt>
<trkpt lat="45.924417" lon="6.977758"><ele>1082.0</ele></trkpt>
<trkpt lat="45.922620" lon="6.977625"><ele>1058.0</ele></trkpt>
<trkpt lat="45.920989" lon="6.976536"><ele>1034.0</ele></trkpt>
<trkpt lat="45.919768" lon="6.974638"><ele>1010.0</ele></trkpt>
<trkpt lat="45.919144" lon="6.972213"><ele>986.0</ele></trkpt>
<trkpt lat="45.919213" lon="6.969629"><ele>962.0</ele></trkpt>
<trkpt lat="45.919957" lon="6.967275"><ele>938.0</ele></trkpt>
<trkpt lat="45.921258" lon="6.965490"><ele>914.0</ele></trkpt>
<trkpt lat="45.922921" lon="6.964505"><ele>890.0</ele></trkpt>
<trkpt lat="45.924719" lon="6.964423"><ele>866.0</ele></trkpt>
<trkpt lat="45.926431" lon="6.965214"><ele>842.0</ele></trkpt>
<trkpt lat="45.927879" lon="6.966748"><ele>818.0</ele></trkpt>
<trkpt lat="45.928944" lon="6.968832"><ele>806.0</ele></trkpt>
<trkpt lat="45.929569" lon="6.971257"><ele>830.0</ele></trkpt>
<trkpt lat="45.929753" lon="6.973829"><ele>854.0</ele></trkpt>
<trkpt lat="45.929536" lon="6.976396"><ele>878.0</ele></trkpt>
<trkpt lat="45.928978" lon="6.978855"><ele>902.0</ele></trkpt>
<trkpt lat="45.928153" lon="6.981152"><ele>926.0</ele></trkpt>
<trkpt lat="45.927129" lon="6.983279"><ele>950.0</ele></trkpt>
<trkpt lat="45.925971" lon="6.985257"><ele>974.0</ele></trkpt>
<trkpt lat="45.924732" lon="6.987132"><ele>998.0</ele></trkpt>
<trkpt lat="45.923463" lon="6.988964"><ele>1022.0</ele></trkpt>
<trkpt lat="45.922209" lon="6.990817"><ele>1046.0</ele></trkpt>
<trkpt lat="45.921017" lon="6.992753"><ele>1070.0</ele></trkpt>
<trkpt lat="45.919940" lon="6.994824"><ele>1094.0</ele></trkpt>
<trkpt lat="45.919038" lon="6.997062"><ele>1118.0</ele></trkpt>
<trkpt lat="45.918381" lon="6.999468"><ele>1142.0</ele></trkpt>
<trkpt lat="45.918038" lon="7.002006"><ele>1166.0</ele></trkpt>
<trkpt lat="45.918078" lon="7.004591"><ele>1160.0</ele></trkpt>
<trkpt lat="45.918548" lon="7.007086"><ele>1136.0</ele></trkpt>
<trkpt lat="45.919464" lon="7.009311"><ele>1112.0</ele></trkpt>
<trkpt lat="45.920790" lon="7.011058"><ele>1088.0</ele></trkpt>
<trkpt lat="45.922429" lon="7.012124"><ele>1064.0</ele></trkpt>
<trkpt lat="45.924221" lon="7.012353"><ele>1040.0</ele></trkpt>
<trkpt lat="45.925956" lon="7.011675"><ele>1016.0</ele></trkpt>
<trkpt lat="45.927407" lon="7.010146"><ele>992.0</ele></trkpt>
<trkpt lat="45.928361" lon="7.007954"><ele>968.0</ele></trkpt>
<trkpt lat="45.928670" lon="7.005406"><ele>944.0</ele></trkpt>
<trkpt lat="45.928281" lon="7.002882"><ele>920.0</ele></trkpt>
<trkpt lat="45.927248" lon="7.000764"><ele>896.0</ele></trkpt>
<trkpt lat="45.925733" lon="6.999371"><ele>872.0</ele></trkpt>
<trkpt lat="45.923964" lon="6.998901"><ele>848.0</ele></trkpt>
<trkpt lat="45.922200" lon="6.999402"><ele>824.0</ele></trkpt>
<trkpt lat="45.920677" lon="7.000778"><ele>800.0</ele></trkpt>
<trkpt lat="45.919578" lon="7.002825"><ele>824.0</ele></trkpt>
<trkpt lat="45.919007" lon="7.005277"><ele>848.0</ele></trkpt>
<trkpt lat="45.918993" lon="7.007862"><ele>872.0</ele></trkpt>
<trkpt lat="45.919498" lon="7.010344"><ele>896.0</ele></trkpt>
<trkpt lat="45.920440" lon="7.012546"><ele>920.0</ele></trkpt>
<trkpt lat="45.921720" lon="7.014363"><ele>944.0</ele></trkpt>
<trkpt lat="45.923235" lon="7.015756"><ele>968.0</ele></trkpt>
<trkpt lat="45.924899" lon="7.016736"><ele>992.0</ele></trkpt>
<trkpt lat="45.926646" lon="7.017355"><ele>1016.0</ele></trkpt>
<trkpt lat="45.928430" lon="7.017685"><ele>1040.0</ele></trkpt>
<trkpt lat="45.930226" lon="7.017811"><ele>1064.0</ele></trkpt>
<trkpt lat="45.932025" lon="7.017824"><ele>1088.0</ele></trkpt>
<trkpt lat="45.933824" lon="7.017816"><ele>1112.0</ele></trkpt>
<trkpt lat="45.935622" lon="7.017879"><ele>1136.0</ele></trkpt>
<trkpt lat="45.937413" lon="7.018104"><ele>1160.0</ele></trkpt>
<trkpt lat="45.939181" lon="7.018580"><ele>1166.0</ele></trkpt>
<trkpt lat="45.940890" lon="7.019386"><ele>1142.0</ele></trkpt>
<trkpt lat="45.942484" lon="7.020586"><ele>1118.0</ele></trkpt>
<trkpt lat="45.943884" lon="7.022209"><ele>1094.0</ele></trkpt>
<trkpt lat="45.944995" lon="7.024244"><ele>1070.0</ele></trkpt>
<trkpt lat="45.945712" lon="7.026616"><ele>1046.0</ele></trkpt>
<trkpt lat="45.945945" lon="7.029181"><ele>1022.0</ele></trkpt>
<trkpt lat="45.945631" lon="7.031728"><ele>998.0</ele></trkpt>
<trkpt lat="45.944767" lon="7.033997"><ele>974.0</ele></trkpt>
<trkpt lat="45.943421" lon="7.035713"><ele>950.0</ele></trkpt>
<trkpt lat="45.941741" lon="7.036636"><ele>926.0</ele></trkpt>
<trkpt lat="45.939942" lon="7.036616"><ele>902.0</ele></trkpt>
<trkpt lat="45.938279" lon="7.035632"><ele>878.0</ele></trkpt>
<trkpt lat="45.936999" lon="7.033814"><ele>854.0</ele></trkpt>
<trkpt lat="45.936300" lon="7.031431"><ele>830.0</ele></trkpt>
<trkpt lat="45.936288" lon="7.028845"><ele>806.0</ele></trkpt>
<trkpt lat="45.936959" lon="7.026445"><ele>818.0</ele></trkpt>
<trkpt lat="45.938205" lon="7.024579"><ele>842.0</ele></trkpt>
<trkpt lat="45.939837" lon="7.023494"><ele>866.0</ele></trkpt>
<trkpt lat="45.941631" lon="7.023307"><ele>890.0</ele></trkpt>
<trkpt lat="45.943364" lon="7.024003"><ele>914.0</ele></trkpt>
<trkpt lat="45.944849" lon="7.025461"><ele>938.0</ele></trkpt>
<trkpt lat="45.945962" lon="7.027493"><ele>962.0</ele></trkpt>
<trkpt lat="45.946639" lon="7.029890"><ele>986.0</ele></trkpt>
<trkpt lat="45.946872" lon="7.032455"><ele>1010.0</ele></trkpt>
<trkpt lat="45.946698" lon="7.035030"><ele>1034.0</ele></trkpt>
<trkpt lat="45.946176" lon="7.037505"><ele>1058.0</ele></trkpt>
<trkpt lat="45.945378" lon="7.039823"><ele>1082.0</ele></trkpt>
<trkpt lat="45.944374" lon="7.041969"><ele>1106.0</ele></trkpt>
<trkpt lat="45.943228" lon="7.043963"><ele>1130.0</ele></trkpt>
<trkpt lat="45.941996" lon="7.045848"><ele>1154.0</ele></trkpt>
<trkpt lat="45.940728" lon="7.047682"><ele>1172.0</ele></trkpt>
<trkpt lat="45.939470" lon="7.049530"><ele>1148.0</ele></trkpt>
<trkpt lat="45.938268" lon="7.051455"><ele>1124.0</ele></trkpt>
<trkpt lat="45.937175" lon="7.053509"><ele>1100.0</ele></trkpt>
<trkpt lat="45.936250" lon="7.055727"><ele>1076.0</ele></trkpt>
<trkpt lat="45.935560" lon="7.058115"><ele>1052.0</ele></trkpt>
<trkpt lat="45.935178" lon="7.060642"><ele>1028.0</ele></trkpt>
<trkpt lat="45.935171" lon="7.063229"><ele>1004.0</ele></trkpt>
<trkpt lat="45.935590" lon="7.065743"><ele>980.0</ele></trkpt>
<trkpt lat="45.936456" lon="7.068011"><ele>956.0</ele></trkpt>
<trkpt lat="45.937738" lon="7.069824"><ele>932.0</ele></trkpt>
<trkpt lat="45.939348" lon="7.070978"><ele>908.0</ele></trkpt>
<trkpt lat="45.941132" lon="7.071308"><ele>884.0</ele></trkpt>
<trkpt lat="45.942886" lon="7.070734"><ele>860.0</ele></trkpt>
<trkpt lat="45.944380" lon="7.069295"><ele>836.0</ele></trkpt>
<trkpt lat="45.945401" lon="7.067166"><ele>812.0</ele></trkpt>
<trkpt lat="45.945789" lon="7.064640"><ele>812.0</ele></trkpt>
<trkpt lat="45.945479" lon="7.062092"><ele>836.0</ele></trkpt>
<trkpt lat="45.944514" lon="7.059909"><ele>860.0</ele></trkpt>
<trkpt lat="45.943044" lon="7.058419"><ele>884.0</ele></trkpt>
<trkpt lat="45.941291" lon="7.057837"><ele>908.0</ele></trkpt>
<trkpt lat="45.939513" lon="7.058229"><ele>932.0</ele></trkpt>
<trkpt lat="45.937952" lon="7.059514"><ele>956.0</ele></trkpt>
<trkpt lat="45.936797" lon="7.061496"><ele>980.0</ele></trkpt>
<trkpt lat="45.936163" lon="7.063917"><ele>1004.0</ele></trkpt>
<trkpt lat="45.936086" lon="7.066501"><ele>1028.0</ele></trkpt>
<trkpt lat="45.936534" lon="7.069005"><ele>1052.0</ele></trkpt>
<trkpt lat="45.937431" lon="7.071247"><ele>1076.0</ele></trkpt>
<trkpt lat="45.938677" lon="7.073112"><ele>1100.0</ele></trkpt>
<trkpt lat="45.940170" lon="7.074554"><ele>1124.0</ele></trkpt>
<trkpt lat="45.941821" lon="7.075580"><ele>1148.0</ele></trkpt>
<trkpt lat="45.943561" lon="7.076238"><ele>1172.0</ele></trkpt>
<trkpt lat="45.945342" lon="7.076597"><ele>1154.0</ele></trkpt>
<trkpt lat="45.947138" lon="7.076742"><ele>1130.0</ele></trkpt>
<trkpt lat="45.948937" lon="7.076763"><ele>1106.0</ele></trkpt>
<trkpt lat="45.950735" lon="7.076753"><ele>1082.0</ele></trkpt>
<trkpt lat="45.952534" lon="7.076803"><ele>1058.0</ele></trkpt>
<trkpt lat="45.954327" lon="7.077005"><ele>1034.0</ele></trkpt>
<trkpt lat="45.956099" lon="7.077448"><ele>1010.0</ele></trkpt>
<trkpt lat="45.957817" lon="7.078213"><ele>986.0</ele></trkpt>
<trkpt lat="45.959428" lon="7.079365"><ele>962.0</ele></trkpt>
<trkpt lat="45.960855" lon="7.080940"><ele>938.0</ele></trkpt>
<trkpt lat="45.962004" lon="7.082931"><ele>914.0</ele></trkpt>
<trkpt lat="45.962772" lon="7.085270"><ele>890.0</ele></trkpt>
<trkpt lat="45.963064" lon="7.087824"><ele>866.0</ele></trkpt>
<trkpt lat="45.962814" lon="7.090386"><ele>842.0</ele></trkpt>
<trkpt lat="45.962012" lon="7.092702"><ele>818.0</ele></trkpt>
<trkpt lat="45.960715" lon="7.094495"><ele>806.0</ele></trkpt>
<trkpt lat="45.959063" lon="7.095519"><ele>830.0</ele></trkpt>
<trkpt lat="45.957266" lon="7.095612"><ele>854.0</ele></trkpt>
<trkpt lat="45.955574" lon="7.094734"><ele>878.0</ele></trkpt>
<trkpt lat="45.954239" lon="7.093001"><ele>902.0</ele></trkpt>
<trkpt lat="45.953466" lon="7.090665"><ele>926.0</ele></trkpt>
<trkpt lat="45.953372" lon="7.088081"><ele>950.0</ele></trkpt>
<trkpt lat="45.953968" lon="7.085640"><ele>974.0</ele></trkpt>
<trkpt lat="45.955156" lon="7.083697"><ele>998.0</ele></trkpt>
<trkpt lat="45.956756" lon="7.082514"><ele>1022.0</ele></trkpt>
<trkpt lat="45.958543" lon="7.082222"><ele>1046.0</ele></trkpt>
<trkpt lat="45.960293" lon="7.082821"><ele>1070.0</ele></trkpt>
<trkpt lat="45.961814" lon="7.084200"><ele>1094.0</ele></trkpt>
<trkpt lat="45.962974" lon="7.086178"><ele>1118.0</ele></trkpt>
<trkpt lat="45.963702" lon="7.088544"><ele>1142.0</ele></trkpt>
<trkpt lat="45.963986" lon="7.091099"><ele>1166.0</ele></trkpt>
<trkpt lat="45.963856" lon="7.093680"><ele>1160.0</ele></trkpt>
<trkpt lat="45.963370" lon="7.096172"><ele>1136.0</ele></trkpt>
<trkpt lat="45.962600" lon="7.098510"><ele>1112.0</ele></trkpt>
<trkpt lat="45.961616" lon="7.100676"><ele>1088.0</ele></trkpt>
<trkpt lat="45.960484" lon="7.102686"><ele>1064.0</ele></trkpt>
<trkpt lat="45.959259" lon="7.104581"><ele>1040.0</ele></trkpt>
<trkpt lat="45.957993" lon="7.106419"><ele>1016.0</ele></trkpt>
<trkpt lat="45.956731" lon="7.108262"><ele>992.0</ele></trkpt>
<trkpt lat="45.955520" lon="7.110176"><ele>968.0</ele></trkpt>
<trkpt lat="45.954412" lon="7.112213"><ele>944.0</ele></trkpt>
<trkpt lat="45.953464" lon="7.114412"><ele>920.0</ele></trkpt>
<trkpt lat="45.952744" lon="7.116783"><ele>896.0</ele></trkpt>
<trkpt lat="45.952323" lon="7.119298"><ele>872.0</ele></trkpt>
<trkpt lat="45.952269" lon="7.121883"><ele>848.0</ele></trkpt>
<trkpt lat="45.952638" lon="7.124416"><ele>824.0</ele></trkpt>
<trkpt lat="45.953452" lon="7.126722"><ele>800.0</ele></trkpt>
</trkseg></trk>
</gpx>
